{"last_updated": "2026-01-08", "schools": [{"id": "school_kyoto-university", "category": "school", "basic_info": {"name_ja": "京都大学", "name_en": "Kyoto University", "address": "京都府京都市左京区吉田本町", "capacity": null}, "location": {"lat": 35.0270496, "lng": 135.7823155}, "features": ["SGU", "EJU Required", "English Program", "Dormitory", "Scholarship"], "tuition": {"admission_fee": 282000, "yearly_tuition": 535800}, "stats": {"international_students": 2400, "acceptance_rate": "15%"}, "link": "/school/school_kyoto-university"}, {"id": "univ_chukyo-university-nagoya", "category": "university", "basic_info": {"name_ja": "中京大学", "name_en": "Chukyo University", "address": "愛知県名古屋市昭和区八事本町101-2", "capacity": null}, "location": {"lat": 35.6812, "lng": 139.7671}, "features": ["EJU Required", "Regional Top Tier", "Strong Sports Science", "Scholarship", "High Employment Rate"], "tuition": {"admission_fee": 250000, "yearly_tuition": 1250000}, "stats": {"international_students": 450, "acceptance_rate": "Competitive"}, "link": "/school/univ_chukyo-university-nagoya"}, {"id": "school_tcc-japanese-language-school", "category": "school", "basic_info": {"name_ja": "ＴＣＣ日本語学校", "name_en": "TCC Japanese Language School", "address": "東京都中野区新井5-28-4　第5さかえビル", "capacity": 222}, "location": {"lat": 35.7161971, "lng": 139.6705098}, "features": ["University Advancement", "Dormitory Available", "EJU Preparation", "Science/STEM Track"], "tuition": {}, "stats": {"capacity": 222, "international_students": 222}, "link": "/school/school_tcc-japanese-language-school"}, {"id": "school_tokyo-world-nihongo-gakkou", "category": "school", "basic_info": {"name_ja": "東京ワールド日本語学校", "name_en": "Tokyo World Japanese Language School", "address": "東京都新宿区百人町1-13-24", "capacity": 1752}, "location": {"lat": 35.6990458, "lng": 139.6994652}, "features": ["University Preparation", "EJU Preparation", "Dormitory Available", "Business Japanese"], "tuition": {}, "stats": {"capacity": 1752, "international_students": 0}, "link": "/school/school_tokyo-world-nihongo-gakkou"}, {"id": "univ_gakushuin-university", "category": "university", "basic_info": {"name_ja": "学習院大学", "name_en": "Gakushuin University", "address": "〒171-8588 東京都豊島区目白1-5-1", "capacity": null}, "location": {"lat": 35.7187521, "lng": 139.7088396}, "features": ["EJU Required", "English Program", "Dormitory", "Scholarship"], "tuition": {"admission_fee": 200000, "yearly_tuition": 1200000}, "stats": {"acceptance_rate": "25%", "international_students": 250}, "link": "/school/univ_gakushuin-university"}, {"id": "school_sakura-japanese-language-academy-fukuoka", "category": "school", "basic_info": {"name_ja": "さくら日本語学院", "name_en": "Sakura Japanese Language Academy", "address": "福岡県糟屋郡新宮町美咲2-17-12", "capacity": 496}, "location": {"lat": 33.7019817, "lng": 130.4401957}, "features": ["Dormitory Available", "EJU Preparation", "University Advancement Support", "Conversation-focused Classes", "Short-term Courses"], "tuition": {}, "stats": {"capacity": 496, "international_students": 0}, "link": "/school/school_sakura-japanese-language-academy-fukuoka"}, {"id": "school_alice-gakuen-professional-training-college-kanazawa", "category": "school", "basic_info": {"name_ja": "専門学校アリス学園", "name_en": "Alice Gakuen Language Institute & Professional Training College", "address": "石川県金沢市円光寺本町8-50", "capacity": 200}, "location": {"lat": 36.5319061, "lng": 136.6416028}, "features": ["Located in historic Kanazawa (Ishikawa Prefecture)", "Guaranteed on-campus housing with single room options available", "Specialized EJU preparation including rare Science/STEM tracks", "Dedicated progression pathways for Art, Design, and Business careers", "Professional Training College (Senmon Gakko) status offering high-level vocational integration", "Focus on conversational fluency and practical Japanese application"], "tuition": {}, "stats": {}, "link": "/school/school_alice-gakuen-professional-training-college-kanazawa"}, {"id": "school_himawari-osaka-nihongo-gakuen", "category": "school", "basic_info": {"name_ja": "ひまわり大阪日本語学園", "name_en": "Himawari Osaka Japanese Language School", "address": "大阪府大阪市生野区巽東3-14-6", "capacity": 100}, "location": {"lat": 34.6524506, "lng": 135.5611634}, "features": ["Dormitory", "EJU Preparation", "University Pathway", "Private Rooms", "Scholarships", "Science Focus", "Conversational Japanese", "Business Japanese", "Art Focus", "Design Focus", "Short-Term Courses"], "tuition": {}, "stats": {"capacity": 100, "international_students": 0}, "link": "/school/school_himawari-osaka-nihongo-gakuen"}, {"id": "school_aomori-nihongo-gakuen", "category": "school", "basic_info": {"name_ja": "あおもり日本語学園", "name_en": "Aomori Japanese Language Academy", "address": "青森県青森市栄町1-4-8", "capacity": 80}, "location": {"lat": 40.824271, "lng": 140.7638932}, "features": ["University Preparation", "Dormitory", "EJU Preparation", "Conversational Japanese", "Scholarships", "Private Rooms", "Science Focus", "Business Japanese", "Art & Design Focus", "Short-Term Courses"], "tuition": {}, "stats": {"capacity": 80, "international_students": 0}, "link": "/school/school_aomori-nihongo-gakuen"}, {"id": "univ_ritsumeikan-university", "category": "university", "basic_info": {"name_ja": "立命館大学", "name_en": "Ritsumeikan University", "address": "56-1 Tojiin Kitamachi, Kita Ward, Kyoto, 603-8577, Japan (Kinugasa Campus)", "capacity": null}, "location": {"lat": 35.6812, "lng": 139.7671}, "features": ["SGU", "EJU Required (for most Japanese-taught programs)", "English Program", "Dormitory", "Scholarship"], "tuition": {"admission_fee": 200000, "yearly_tuition": 1280000}, "stats": {"international_students": 2600, "acceptance_rate": "Competitive, varies by faculty"}, "link": "/school/univ_ritsumeikan-university"}, {"id": "school_yamanashi-foreign-language-academy", "category": "school", "basic_info": {"name_ja": "山梨外語学院", "name_en": "Yamanashi Foreign Language Academy", "address": "山梨県甲府市武田4-1-29", "capacity": 80}, "location": {"lat": 35.6772321, "lng": 138.5727122}, "features": ["University Preparation Focus", "Conversation Practice Emphasis", "On-Campus Dormitory Available", "Single Room Dormitory Option", "Scholarship Opportunities", "EJU Preparation", "Science/STEM Track Support", "Business Japanese", "Art & Design Track Support", "Short-Term Study Available"], "tuition": {}, "stats": {"international_students": 75, "capacity": 80}, "link": "/school/school_yamanashi-foreign-language-academy"}, {"id": "school_isi-language-school-osaka", "category": "school", "basic_info": {"name_ja": "ISIランゲージスクール大阪校", "name_en": "ISI Language School Osaka", "address": "大阪府大阪市中央区南船場3-5-8 オーク心斎橋ビル5階", "capacity": 480}, "location": {"lat": 34.6754737, "lng": 135.5021618}, "features": ["Dormitory", "Private Room", "Scholarship", "EJU Preparation", "Science Courses", "University Pathway", "Conversation Focused", "Business Japanese", "Art Courses", "Design Courses", "Short-Term Courses"], "tuition": {}, "stats": {"international_students": 123, "capacity": 480}, "link": "/school/school_isi-language-school-osaka"}, {"id": "school_waseda-edu-japanese-language-school", "category": "school", "basic_info": {"name_ja": "早稲田EDU日本語学校", "name_en": "Waseda EDU Japanese Language School", "address": "東京都新宿区市谷砂土原町2-7 TK第一ビル2F", "capacity": 960}, "location": {"lat": 35.6956105, "lng": 139.7358832}, "features": ["University Entrance Preparation (Shinagaku)", "EJU Specialized Training", "Strong Focus on Science and Engineering (Rika/Igaku)", "High Capacity Institution (Maximum 960 students)", "Located in Shinjuku, Tokyo", "Intensive Academic Curriculum"], "tuition": {}, "stats": {}, "link": "/school/school_waseda-edu-japanese-language-school"}, {"id": "school_asia-japanese-academy", "category": "school", "basic_info": {"name_ja": "アジア日本語学院", "name_en": "Asia Japanese Academy", "address": "福岡県福岡市南区長住4-2-29", "capacity": 238}, "location": {"lat": 33.5466431, "lng": 130.3963906}, "features": ["Dormitory", "Scholarship", "EJU Prep", "University Prep", "Conversation", "Business Japanese", "Art & Design Prep", "Short-term", "Single Room Dormitory", "Science/STEM Track"], "tuition": {}, "stats": {"capacity": 238, "international_students": 0}, "link": "/school/school_asia-japanese-academy"}, {"id": "school_igl-medical-welfare-professional-school-japanese-language-department", "category": "school", "basic_info": {"name_ja": "IGL医療福祉専門学校日本語学科", "name_en": "IGL College of Medical and Welfare Japanese Language Department", "address": "広島県広島市安佐南区伴東1-12-18", "capacity": 240}, "location": {"lat": 34.47127940000001, "lng": 132.4245312}, "features": ["Dormitory", "EJU Preparation", "University/College Prep", "Conversation Focus", "Science Track", "Business Japanese", "Art/Fine Arts Prep", "Design Prep", "Short-term study available"], "tuition": {}, "stats": {"capacity": 240, "international_students": 0}, "link": "/school/school_igl-medical-welfare-professional-school-japanese-language-department"}, {"id": "univ_kanazawa-university", "category": "university", "basic_info": {"name_ja": "金沢大学", "name_en": "Kanazawa University", "address": "〒920-1192 金沢市角間町", "capacity": null}, "location": {"lat": 35.6812, "lng": 139.7671}, "features": ["EJU Required", "English Program", "Dormitory", "Scholarship"], "tuition": {"admission_fee": 282000, "yearly_tuition": 535800}, "stats": {"international_students": 693, "acceptance_rate": "30-40%"}, "link": "/school/univ_kanazawa-university"}, {"id": "school_j-kokusai-gakuin", "category": "school", "basic_info": {"name_ja": "J国際学院", "name_en": "J International Academy", "address": "大阪府大阪市西区立売堀1-1-3", "capacity": 560}, "location": {"lat": 34.6801975, "lng": 135.4975075}, "features": ["Dormitory", "EJU", "University Preparation", "Conversation Focused", "Short Term Courses", "Science Focused"], "tuition": {}, "stats": {}, "link": "/school/school_j-kokusai-gakuin"}, {"id": "school_meiyo-japanese-language-academy", "category": "school", "basic_info": {"name_ja": "明友日本語学院", "name_en": "Meiyu Japanese Language School", "address": "千葉県柏市泉町17-1", "capacity": 280}, "location": {"lat": 35.854525, "lng": 139.9670156}, "features": ["Dormitory", "EJU Preparation", "University Pathway", "Science Focus"], "tuition": {}, "stats": {"capacity": 280, "international_students": 0}, "link": "/school/school_meiyo-japanese-language-academy"}, {"id": "school_happiness-foreign-language-academy", "category": "school", "basic_info": {"name_ja": "はぴねす外語学院", "name_en": "Happiness Foreign Language Academy", "address": "愛媛県新居浜市一宮町2-2-16", "capacity": 70}, "location": {"lat": 33.9587017, "lng": 133.278203}, "features": ["University Advancement", "EJU Preparation", "Dormitory Available", "Single Rooms", "Scholarships Available", "Science/STEM Track", "Conversation Focus", "Business Japanese", "Art & Design Prep", "Short-term Courses"], "tuition": {}, "stats": {"capacity": 70, "international_students": 0}, "link": "/school/school_happiness-foreign-language-academy"}, {"id": "school_tohoku-university", "category": "school", "basic_info": {"name_ja": "東北大学", "name_en": "Tohoku University", "address": "宮城県仙台市青葉区片平二丁目1-1", "capacity": null}, "location": {"lat": 38.2515119, "lng": 140.8753007}, "features": ["SGU", "EJU Required", "English Program", "Dormitory", "Scholarship"], "tuition": {"admission_fee": 282000, "yearly_tuition": 535800}, "stats": {"international_students": 2000, "acceptance_rate": "20-30%"}, "link": "/school/school_tohoku-university"}, {"id": "school_nagoya-fukutoku-japanese-language-academy", "category": "school", "basic_info": {"name_ja": "名古屋福徳日本語学院", "name_en": "Nagoya Futoku Japanese Language Academy", "address": "愛知県名古屋市中区葵2-14-22", "capacity": 300}, "location": {"lat": 35.1699293, "lng": 136.9259032}, "features": ["Small Class Sizes", "Ability-Based Classes", "Homeroom Teacher System", "International Exchange", "Japanese Culture", "Lifestyle Guidance", "Dormitory", "Private Rooms", "Scholarships", "EJU Preparation", "Science Focus", "University Pathway", "Conversation Practice", "Business Japanese", "Art & Design", "Short-Term Courses"], "tuition": {}, "stats": {"capacity": 300, "international_students": 0}, "link": "/school/school_nagoya-fukutoku-japanese-language-academy"}, {"id": "school_osaka-japanese-language-academy", "category": "school", "basic_info": {"name_ja": "大阪日本語アカデミー", "name_en": "Osaka Japanese Language Academy", "address": "大阪府大阪市平野区長吉長原西2-2-12", "capacity": 244}, "location": {"lat": 34.6060524, "lng": 135.567036}, "features": ["Dormitory Available", "Single Rooms in Dorm", "Scholarship Programs", "EJU Preparation", "Science Stream Support", "University Advancement Support", "Conversation-focused Classes", "Business Japanese", "Art & Design University Prep", "Short-term Study Options"], "tuition": {}, "stats": {"capacity": 244, "international_students": 0}, "link": "/school/school_osaka-japanese-language-academy"}, {"id": "univ_keio-university", "category": "university", "basic_info": {"name_ja": "慶應義塾大学", "name_en": "Keio University", "address": "東京都港区三田2-15-45", "capacity": null}, "location": {"lat": 35.6492141, "lng": 139.7418255}, "features": ["SGU", "EJU Required", "English Program", "Dormitory", "Scholarship"], "tuition": {"admission_fee": 200000, "yearly_tuition": 1200000}, "stats": {"international_students": 2000, "acceptance_rate": "10%"}, "link": "/school/univ_keio-university"}, {"id": "school_kobe-nichigo-gakuin", "category": "school", "basic_info": {"name_ja": "神戸日語学院", "name_en": "Kobe Institute of Japanese Language", "address": "兵庫県尼崎市南塚口町１-20-17", "capacity": 140}, "location": {"lat": 34.7540145, "lng": 135.4122723}, "features": ["Conversation", "Higher Education Preparation", "EJU Preparation", "Dormitory", "Private Room", "Scholarship", "Science Stream", "Business Japanese", "Art", "Design", "Short-Term Course"], "tuition": {}, "stats": {}, "link": "/school/school_kobe-nichigo-gakuin"}, {"id": "school_kokusai-academy-language-school", "category": "school", "basic_info": {"name_ja": "国際アカデミーランゲージスクール", "name_en": "Kokusai Academy Language School", "address": "宮城県仙台市宮城野区榴岡1-5-3", "capacity": 225}, "location": {"lat": 38.2577568, "lng": 140.8836868}, "features": ["Dormitory", "EJU Preparation", "University Advancement", "Business Japanese", "Scholarships"], "tuition": {}, "stats": {"capacity": 225, "international_students": 0}, "link": "/school/school_kokusai-academy-language-school"}, {"id": "univ_senshu-university", "category": "university", "basic_info": {"name_ja": "専修大学", "name_en": "Senshu University", "address": "2-1-1 Higashi-Mita, Tama-ku, Kawasaki-shi, Kanagawa 214-8580, Japan (Ikuta Campus)", "capacity": null}, "location": {"lat": 35.6812, "lng": 139.7671}, "features": ["EJU Required", "Dormitory", "Scholarship", "Career Support"], "tuition": {"admission_fee": 200000, "yearly_tuition": 1000000}, "stats": {"international_students": 600, "acceptance_rate": "Competitive"}, "link": "/school/univ_senshu-university"}, {"id": "univ_daito-bunka-university", "category": "university", "basic_info": {"name_ja": "大東文化大学", "name_en": "Daito Bunka University", "address": "東京都板橋区高島平1-9-1", "capacity": null}, "location": {"lat": 35.6812, "lng": 139.7671}, "features": ["EJU Required", "Dormitory", "Scholarship"], "tuition": {"admission_fee": 200000, "yearly_tuition": 1060000}, "stats": {"international_students": 500, "acceptance_rate": "Competitive"}, "link": "/school/univ_daito-bunka-university"}, {"id": "school_kyoto-reigaku-international-academy-expert-guide", "category": "school", "basic_info": {"name_ja": "京都励学国際学院", "name_en": "Kyoto Reigaku International Academy (京都励学国際学院)", "address": "京都府京都市伏見区上板橋町513", "capacity": 120}, "location": {"lat": 34.9422923, "lng": 135.7617884}, "features": ["Specialized University Preparation (Shingaku)", "Dedicated EJU and Science/Art Track Support", "Mandatory Single-Room Dormitory Options for Maximum Focus", "Located in the Cultural and Academic Hub of Kyoto", "Small Student Capacity Ensuring Personalized Attention", "Robust Scholarship and Financial Aid Programs"], "tuition": {}, "stats": {"international_students": 120, "capacity": 120}, "link": "/school/school_kyoto-reigaku-international-academy-expert-guide"}, {"id": "school_labo-japanese-language-institute", "category": "school", "basic_info": {"name_ja": "ラボ日本語教育研修所", "name_en": "LABO Japanese Language Institute", "address": "東京都文京区千駄木3-33-6 千駄木パークビル", "capacity": 100}, "location": {"lat": 35.7264989, "lng": 139.7631291}, "features": ["Higher Education Prep", "EJU Prep", "Fine Arts", "Design"], "tuition": {}, "stats": {"capacity": 100, "international_students": 0}, "link": "/school/school_labo-japanese-language-institute"}, {"id": "school_kouchi-gakuen-second-affiliated-japanese-language-school", "category": "school", "basic_info": {"name_ja": "行知学園第二附属日本語学校", "name_en": "Kouchi Gakuen Second Affiliated Japanese Language School", "address": "東京都杉並区下高井戸2-10-3 プラザ・ローヤル5ビル 2階", "capacity": 480}, "location": {"lat": 35.6689244, "lng": 139.6349281}, "features": ["Intensive University Entrance Preparation", "Specialized EJU and Science Track (理科) Curriculum", "On-campus or Partner Dormitory Available", "Located in Tokyo (Suginami Ward)", "High Academic Standards and Rigorous Study Environment"], "tuition": {}, "stats": {"international_students": 450, "capacity": 480}, "link": "/school/school_kouchi-gakuen-second-affiliated-japanese-language-school"}, {"id": "school_nagoya-university", "category": "school", "basic_info": {"name_ja": "名古屋大学", "name_en": "Nagoya University", "address": "〒464-8601 愛知県名古屋市千種区不老町", "capacity": null}, "location": {"lat": 35.155816, "lng": 136.9648909}, "features": ["SGU", "EJU Required", "English Program", "Dormitory", "Scholarship", "Exchange Program"], "tuition": {"admission_fee": 282000, "yearly_tuition": 535800}, "stats": {"international_students": 2357, "acceptance_rate": "30%"}, "link": "/school/school_nagoya-university"}, {"id": "school_marugame-international-academy", "category": "school", "basic_info": {"name_ja": "丸亀国際学院", "name_en": "Marugame International Academy", "address": "香川県丸亀市南条町17-4", "capacity": 80}, "location": {"lat": 34.2887232, "lng": 133.7922561}, "features": ["Dormitory", "EJU Preparation", "University Pathway", "Conversational Japanese", "Business Japanese"], "tuition": {}, "stats": {"capacity": 80, "international_students": 0}, "link": "/school/school_marugame-international-academy"}, {"id": "school_osaka-frontier-japanese-language-school", "category": "school", "basic_info": {"name_ja": "大阪フロンティア日本語学校", "name_en": "Osaka Frontier Japanese Language School", "address": "大阪府堺市堺区海山町1-1-2", "capacity": 99}, "location": {"lat": 34.5871599, "lng": 135.4773018}, "features": ["Dedicated EJU and University Entrance Examination Preparation", "Comprehensive On-Campus or Partnered Housing Available (Dormitory)", "Focused Advanced Pathway Guidance (Shin-gaku)", "Emphasis on Practical Conversational Skills and Communication", "Flexible Short-Term Study Options Available"], "tuition": {}, "stats": {"international_students": 90, "capacity": 99}, "link": "/school/school_osaka-frontier-japanese-language-school"}, {"id": "school_tokyo-ymca-japanese-language-school-expert-guide", "category": "school", "basic_info": {"name_ja": "東京YMCAにほんご学院", "name_en": "Tokyo YMCA Japanese Language School (Tokyo YMCA Nihongo Gakuin)", "address": "東京都江東区東陽2-2-15", "capacity": 156}, "location": {"lat": 35.6671287, "lng": 139.8162446}, "features": ["Dedicated Preparation for EJU (Examination for Japanese University Admission)", "Strong Focus on Academic Progression (Shingaku) to Japanese Universities", "Affiliated with the Global Non-Profit YMCA, ensuring ethical and holistic education", "Small School Capacity fostering intensive, personalized learning environments", "Comprehensive Student Support and Pastoral Care Network"], "tuition": {}, "stats": {"international_students": 156, "capacity": 156}, "link": "/school/school_tokyo-ymca-japanese-language-school-expert-guide"}, {"id": "univ_kyushu-sangyo-university-ksu", "category": "university", "basic_info": {"name_ja": "九州産業大学", "name_en": "Kyushu Sangyo University", "address": "〒813-8503 福岡県福岡市東区松香台２丁目３−１", "capacity": null}, "location": {"lat": 35.6812, "lng": 139.7671}, "features": ["Regional Private Leader", "Strong EJU Focus", "High Job Placement Rate in Kyushu", "Significant Tuition Waivers Available", "Design and Engineering Focus"], "tuition": {"admission_fee": 250000, "yearly_tuition": 1150000}, "stats": {"international_students": 350, "acceptance_rate": "Not Publicly Disclosed (Estimated 30%-40%)"}, "link": "/school/univ_kyushu-sangyo-university-ksu"}, {"id": "school_japan-student-services-organization-osaka-japanese-education-centre", "category": "school", "basic_info": {"name_ja": "日本学生支援機構大阪日本語教育センター", "name_en": "Japan Student Services Organization Osaka Japanese Education Centre", "address": "大阪府大阪市天王寺区上本町8-3-13", "capacity": 365}, "location": {"lat": 34.6605285, "lng": 135.5175726}, "features": ["Official JASSO Institution", "High University Placement Rate (National/Public Focus)", "On-Campus Dormitory Available", "Extensive Scholarship System", "Advanced EJU Preparation", "Specialized Tracks (Science, Humanities, Art/Design)", "Business and Conversation Skills Training", "Short-Term Study Options"], "tuition": {}, "stats": {"international_students": 365, "capacity": 365}, "link": "/school/school_japan-student-services-organization-osaka-japanese-education-centre"}, {"id": "univ_waseda-university", "category": "university", "basic_info": {"name_ja": "早稲田大学", "name_en": "Waseda University", "address": "〒169-8050 東京都新宿区戸塚町1-104", "capacity": null}, "location": {"lat": 35.709561, "lng": 139.7211843}, "features": ["SGU", "EJU Required", "English Program", "Dormitory", "Scholarship"], "tuition": {"admission_fee": 200000, "yearly_tuition": 1200000}, "stats": {"acceptance_rate": "13%", "international_students": 5700}, "link": "/school/univ_waseda-university"}, {"id": "school_kokusai-nihongo-gakuin", "category": "school", "basic_info": {"name_ja": "国際日本語学院", "name_en": "Kokusai Nihongo Gakuin (International Japanese Language Institute)", "address": "東京都中央区日本橋浜町3-36-4", "capacity": 180}, "location": {"lat": 35.6852133, "lng": 139.7908609}, "features": ["University Progression Focused", "EJU and JLPT Specialized Training", "Exceptional Support for STEM (Science/Rika) Track Applicants", "Premium Central Tokyo Location (Nihonbashi)", "Small School Capacity for Personalized Guidance", "Highly Structured Academic Curriculum"], "tuition": {}, "stats": {}, "link": "/school/school_kokusai-nihongo-gakuin"}, {"id": "univ_nanzan-university-guide", "category": "university", "basic_info": {"name_ja": "南山大学", "name_en": "Nanzan University", "address": "466-8673 Aichi, Nagoya, Showa Ward, Gokenyacho 27-1", "capacity": null}, "location": {"lat": 35.6812, "lng": 139.7671}, "features": ["Regional Top Private University", "Catholic Affiliation", "EJU Required (for most programs)", "English Degree Program (GALS)", "Strong Foreign Language Focus", "Located in Nagoya"], "tuition": {"admission_fee": 250000, "yearly_tuition": 1250000}, "stats": {"international_students": 650, "acceptance_rate": "Competitive (Varies by Faculty)"}, "link": "/school/univ_nanzan-university-guide"}, {"id": "school_asahi-bunka-gakuin", "category": "school", "basic_info": {"name_ja": "ASAHI文化学院", "name_en": "Asahi Culture Academy", "address": "愛知県名古屋市中川区山王3-10-9", "capacity": 200}, "location": {"lat": 35.1514792, "lng": 136.8909309}, "features": ["Dormitory", "EJU Preparation", "University Pathway", "Conversation Focused", "Business Japanese", "Science Focus", "Short-Term Courses"], "tuition": {}, "stats": {"capacity": 200, "international_students": 0}, "link": "/school/school_asahi-bunka-gakuin"}, {"id": "school_mitsumine-career-academy-japanese-course", "category": "school", "basic_info": {"name_ja": "ミツミネキャリアアカデミー 日本語コース", "name_en": "Mitsumine Career Academy Japanese Language Course", "address": "東京都新宿区北新宿4-1-1 第三山廣ビル", "capacity": 700}, "location": {"lat": 35.7042413, "lng": 139.6944427}, "features": ["University Preparation", "EJU Support", "Dormitory Available"], "tuition": {}, "stats": {"capacity": 700, "international_students": 0}, "link": "/school/school_mitsumine-career-academy-japanese-course"}, {"id": "school_kyoto-japanese-language-school", "category": "school", "basic_info": {"name_ja": "京都日本語学校", "name_en": "Kyoto Japanese Language School", "address": "京都府京都市上京区一条通新町東入ル東日野殿町394番地の2", "capacity": 130}, "location": {"lat": 35.02638, "lng": 135.7576702}, "features": ["Dormitory", "EJU Preparation", "University Admission", "Conversation Focused", "Art Courses", "Design Courses", "Science Courses"], "tuition": {}, "stats": {"capacity": 130, "international_students": 0}, "link": "/school/school_kyoto-japanese-language-school"}, {"id": "school_kobe-gaigo-kyoiku-gakuin", "category": "school", "basic_info": {"name_ja": "神戸外語教育学院", "name_en": "Kobe Institute of Foreign Languages Education", "address": "兵庫県神戸市長田区六番町5-6-1", "capacity": 516}, "location": {"lat": 34.6716499, "lng": 135.1532515}, "features": ["Dormitory Available", "EJU Preparation", "University Preparatory Courses", "Conversation Skills", "Short-term Study", "Science Stream (STEM) Prep"], "tuition": {}, "stats": {"capacity": 516, "international_students": 0}, "link": "/school/school_kobe-gaigo-kyoiku-gakuin"}, {"id": "school_sagami-international-academy", "category": "school", "basic_info": {"name_ja": "相模国際学院", "name_en": "Sagami International Academy", "address": "神奈川県相模原市南区旭町8-22", "capacity": 100}, "location": {"lat": 35.5275876, "lng": 139.4283028}, "features": ["Dormitory Available", "EJU Preparation", "University Advancement Support", "Conversation-focused Classes", "Short-term Courses Available", "Science Stream Prep"], "tuition": {}, "stats": {"capacity": 100, "international_students": 100}, "link": "/school/school_sagami-international-academy"}, {"id": "school_kokusai-language-institute-kobe", "category": "school", "basic_info": {"name_ja": "国際語学学院", "name_en": "Kokusai Language Institute (Kobe)", "address": "兵庫県神戸市長田区三番町5-5", "capacity": 528}, "location": {"lat": 34.6680475, "lng": 135.153435}, "features": ["Integrated Dormitory Services (Single Rooms Available)", "Intensive EJU (Examination for Japanese University Admission) Preparation", "Comprehensive University and Graduate School Advancement Tracks", "Specialized Preparation for Science/Engineering Majors", "Specialized Preparation for Art and Design Majors", "Advanced Business Japanese and Career Track Training", "Dedicated Scholarship Programs", "Focus on Conversation and Practical Communication Skills", "Flexible Short-Term Study Options"], "tuition": {}, "stats": {"international_students": 500, "capacity": 528}, "link": "/school/school_kokusai-language-institute-kobe"}, {"id": "school_yono-gakuin-japanese-language-school", "category": "school", "basic_info": {"name_ja": "与野学院 日本語学校", "name_en": "Yono Gakuin Japanese Language School", "address": "埼玉県さいたま市大宮区吉敷町4-78", "capacity": 300}, "location": {"lat": 35.8961307, "lng": 139.6362829}, "features": ["Dormitory", "EJU Preparation", "University Pathway", "Conversation Focused", "Scholarships", "Private Rooms", "Business Japanese", "Art Courses", "Design Courses", "Short-Term Courses"], "tuition": {}, "stats": {"capacity": 300, "international_students": 0}, "link": "/school/school_yono-gakuin-japanese-language-school"}, {"id": "univ_okinawa-international-university-okiu", "category": "university", "basic_info": {"name_ja": "沖縄国際大学", "name_en": "Okinawa International University", "address": "2-6-1 Ginowan, Ginowan City, Okinawa 901-2701, Japan", "capacity": null}, "location": {"lat": 35.6812, "lng": 139.7671}, "features": ["Focus on Okinawan History and US-Japan Relations", "Strong Regional Engagement and Community Research", "EJU Required", "Limited English Programs (Primarily Japanese Instruction)"], "tuition": {"admission_fee": 220000, "yearly_tuition": 750000}, "stats": {"international_students": 130, "acceptance_rate": "45%"}, "link": "/school/univ_okinawa-international-university-okiu"}, {"id": "school_clover-academy-osaka", "category": "school", "basic_info": {"name_ja": "クローバー学院", "name_en": "Clover Academy", "address": "大阪府大阪市西区新町1-2-13　新町ビル4F", "capacity": 232}, "location": {"lat": 34.677933, "lng": 135.4973859}, "features": ["EJU Preparation", "University Advancement", "Scholarships", "Dormitory", "Science Focus"], "tuition": {}, "stats": {"capacity": 232, "international_students": 0}, "link": "/school/school_clover-academy-osaka"}, {"id": "univ_okayama-university", "category": "university", "basic_info": {"name_ja": "岡山大学", "name_en": "Okayama University", "address": "3-1-1 Tsushima-naka, Kita-ku, Okayama 700-8530, Japan", "capacity": null}, "location": {"lat": 35.6812, "lng": 139.7671}, "features": ["National University", "EJU Required", "English Program", "Dormitory", "Scholarship"], "tuition": {"admission_fee": 282000, "yearly_tuition": 535800}, "stats": {"international_students": 847, "acceptance_rate": "Varies by Faculty (approximately 20-40%)"}, "link": "/school/univ_okayama-university"}, {"id": "school_tokyo-kyoiku-bunka-gakuin", "category": "school", "basic_info": {"name_ja": "東京教育文化学院", "name_en": "Tokyo Kyoiku Bunka Gakuin", "address": "東京都豊島区高田3-15-14", "capacity": 325}, "location": {"lat": 35.7152719, "lng": 139.7059162}, "features": ["University Preparation", "EJU Preparation", "Art", "Design", "Painting", "Short-Term Courses"], "tuition": {}, "stats": {"international_students": 123, "capacity": 325}, "link": "/school/school_tokyo-kyoiku-bunka-gakuin"}, {"id": "school_jsl-nihon-academy-tokyo-school", "category": "school", "basic_info": {"name_ja": "ＪＳＬ日本アカデミー東京校", "name_en": "JSL Nihon Academy Tokyo School", "address": "東京都台東区浅草橋3-8-5 5F", "capacity": 100}, "location": {"lat": 35.7009273, "lng": 139.783979}, "features": ["University Entrance Preparation Focus", "Specialized EJU (Examination for Japanese University Admission) Training", "Flexible Short-Term Study Options", "Intimate Learning Environment (Max 100 Students)", "Prime Central Tokyo Location (Asakusabashi)"], "tuition": {}, "stats": {"international_students": 90, "capacity": 100}, "link": "/school/school_jsl-nihon-academy-tokyo-school"}, {"id": "school_chuo-information-college", "category": "school", "basic_info": {"name_ja": "中央情報専門学校", "name_en": "Chuo Joho College", "address": "埼玉県新座市東北2-33-10", "capacity": 160}, "location": {"lat": 35.8206626, "lng": 139.5769213}, "features": ["Further Education", "EJU Preparation", "Dormitory", "Private Rooms", "Scholarships", "Science Focus", "University Advancement", "Conversational Japanese", "Business Japanese", "Art & Design", "Short-term Courses"], "tuition": {}, "stats": {"capacity": 160, "international_students": 0}, "link": "/school/school_chuo-information-college"}, {"id": "school_okayama-university-of-science-and-technology-vocational-school-japanese-language-department", "category": "school", "basic_info": {"name_ja": "岡山科学技術専門学校日本語学科", "name_en": "Okayama Institute of Science and Technology, Japanese Language Department", "address": "岡山県岡山市北区昭和町8-10", "capacity": 160}, "location": {"lat": 34.6632034, "lng": 133.9120432}, "features": ["University Preparation", "Dormitory", "EJU Preparation", "Conversation Skills", "Short-term Courses"], "tuition": {}, "stats": {"capacity": 160, "international_students": 0}, "link": "/school/school_okayama-university-of-science-and-technology-vocational-school-japanese-language-department"}, {"id": "univ_ritsumeikan-asia-pacific-university-apu", "category": "university", "basic_info": {"name_ja": "立命館アジア太平洋大学", "name_en": "Ritsumeikan Asia Pacific University", "address": "大分県別府市十文字原1-1", "capacity": null}, "location": {"lat": 35.6812, "lng": 139.7671}, "features": ["SGU", "English Program", "Dormitory Guaranteed First Year", "High Scholarship Rate", "EJU Optional"], "tuition": {"admission_fee": 200000, "yearly_tuition": 1300000}, "stats": {"international_students": 3200, "acceptance_rate": "25% (Estimated)"}, "link": "/school/univ_ritsumeikan-asia-pacific-university-apu"}, {"id": "univ_international-christian-university", "category": "university", "basic_info": {"name_ja": "国際基督教大学", "name_en": "International Christian University", "address": "3-10-2 Osawa, Mitaka, Tokyo 181-8585, Japan", "capacity": null}, "location": {"lat": 35.6874807, "lng": 139.5297309}, "features": ["English Program", "Dormitory", "Scholarship", "Liberal Arts Education", "Bilingual Environment"], "tuition": {"admission_fee": 200000, "yearly_tuition": 1700000}, "stats": {"international_students": 300, "acceptance_rate": "15%"}, "link": "/school/univ_international-christian-university"}, {"id": "school_nara-sogo-business-college-japanese-language-division", "category": "school", "basic_info": {"name_ja": "奈良総合ビジネス専門学校", "name_en": "Nara Sogo Business College (Japanese Language Division)", "address": "奈良県奈良市法蓮町7-2", "capacity": 180}, "location": {"lat": 34.6890115, "lng": 135.8258508}, "features": ["Comprehensive University Preparation (進学)", "Specialized EJU (Examination for Japanese University Admission) Support", "On-Campus Dormitory Facilities Available", "Focus on Practical Conversation and Business Japanese", "Exclusive Scholarship Programs", "Accommodation Options Including Single Rooms (1人室)", "Specialized Tracks for Science, Art, and Design Majors", "Short-Term Study Options"], "tuition": {}, "stats": {"international_students": 150, "capacity": 180}, "link": "/school/school_nara-sogo-business-college-japanese-language-division"}, {"id": "school_tokyo-chuo-japanese-language-school", "category": "school", "basic_info": {"name_ja": "東京中央日本語学院", "name_en": "Tokyo Central Japanese Language Institute", "address": "東京都新宿区信濃町34 トーシン信濃町駅前ビル4,5,6階", "capacity": 1080}, "location": {"lat": 35.6800875, "lng": 139.7201001}, "features": ["University Prep", "EJU Prep", "Dormitory Available", "STEM Track"], "tuition": {}, "stats": {"capacity": 1080, "international_students": 0}, "link": "/school/school_tokyo-chuo-japanese-language-school"}, {"id": "school_the-university-of-tokyo", "category": "school", "basic_info": {"name_ja": "東京大学", "name_en": "The University of Tokyo", "address": "東京都文京区本郷7-3-1", "capacity": null}, "location": {"lat": 35.7115533, "lng": 139.7616856}, "features": ["SGU", "EJU Required", "English Program", "Dormitory", "Scholarship", "Global Campus Initiatives"], "tuition": {"admission_fee": 282000, "yearly_tuition": 535800}, "stats": {"international_students": 3700, "acceptance_rate": "20%"}, "link": "/school/school_the-university-of-tokyo"}, {"id": "school_midream-japanese-language-school-shinjuku", "category": "school", "basic_info": {"name_ja": "ミッドリーム日本語学校", "name_en": "Midream Japanese Language School", "address": "東京都新宿区百人町2-7-11", "capacity": 890}, "location": {"lat": 35.7041144, "lng": 139.699733}, "features": ["Specialized University Progression (EJU Focus)", "Dedicated Fine Arts Preparation Program", "Strategic Location in Shinjuku (Tokyo)", "Flexible Long-term and Short-term Study Options"], "tuition": {}, "stats": {}, "link": "/school/school_midream-japanese-language-school-shinjuku"}, {"id": "univ_toyo-university", "category": "university", "basic_info": {"name_ja": "東洋大学", "name_en": "Toyo University", "address": "〒112-8606 東京都文京区白山5-28-20", "capacity": null}, "location": {"lat": 35.7233128, "lng": 139.7500289}, "features": ["SGU", "EJU Required", "English Program", "Dormitory", "Scholarship"], "tuition": {"admission_fee": 200000, "yearly_tuition": 1200000}, "stats": {"international_students": 1700, "acceptance_rate": "40%"}, "link": "/school/univ_toyo-university"}, {"id": "univ_meijo-university-nagoya", "category": "university", "basic_info": {"name_ja": "名城大学", "name_en": "Meijo University", "address": "〒468-8502 愛知県名古屋市天白区塩釜口1丁目501", "capacity": null}, "location": {"lat": 35.6812, "lng": 139.7671}, "features": ["EJU Required", "Strong STEM Focus", "Nobel Laureate Affiliation", "Nagoya Location", "Industry Connection"], "tuition": {"admission_fee": 250000, "yearly_tuition": 1150000}, "stats": {"international_students": 550, "acceptance_rate": "Data Not Public (Estimated Highly Competitive)"}, "link": "/school/univ_meijo-university-nagoya"}, {"id": "school_tokuyama-college-of-comprehensive-business", "category": "school", "basic_info": {"name_ja": "徳山総合ビジネス専門学校", "name_en": "Tokuyama College of Comprehensive Business (Tokuyama Sogo Business Senmon Gakko)", "address": "山口県周南市本町2-13", "capacity": 200}, "location": {"lat": 34.0549818, "lng": 131.8020821}, "features": ["On-campus/Affiliated Dormitory Accommodation Available", "Strong Focus on University and Graduate School Entrance Examination (EJU/JLPT)", "Located in Shunan City, Yamaguchi Prefecture (Western Japan)", "Offers Short-Term Study Opportunities alongside Long-Term Academic Tracks", "Integration within a Vocational College Environment"], "tuition": {}, "stats": {"international_students": 200, "capacity": 200}, "link": "/school/school_tokuyama-college-of-comprehensive-business"}, {"id": "univ_osaka-university-of-arts-guide", "category": "university", "basic_info": {"name_ja": "大阪芸術大学", "name_en": "Osaka University of Arts", "address": "〒585-8555 大阪府南河内郡河南町東山469", "capacity": null}, "location": {"lat": 35.6812, "lng": 139.7671}, "features": ["EJU Required (Japanese-Taught)", "Portfolio Review", "Suburban Campus", "Arts Focus", "Scholarship Opportunities"], "tuition": {"admission_fee": 330000, "yearly_tuition": 1780000}, "stats": {"international_students": 350, "acceptance_rate": "Highly competitive for select programs (Approx. 20-30% overall)"}, "link": "/school/univ_osaka-university-of-arts-guide"}, {"id": "univ_komazawa-university", "category": "university", "basic_info": {"name_ja": "駒澤大学", "name_en": "Komazawa University", "address": "1-23-1 Komazawa, Setagaya-ku, Tokyo 154-8525, Japan", "capacity": null}, "location": {"lat": 35.6812, "lng": 139.7671}, "features": ["EJU Required", "Dormitory", "Scholarship", "Japanese Language Support"], "tuition": {"admission_fee": 200000, "yearly_tuition": 1100000}, "stats": {"international_students": 400, "acceptance_rate": "Competitive (Not officially published)"}, "link": "/school/univ_komazawa-university"}, {"id": "univ_kyoto-seika-university-international-guide", "category": "university", "basic_info": {"name_ja": "京都精華大学", "name_en": "Kyoto Seika University", "address": "〒606-8585 京都府京都市左京区岩倉木野町137", "capacity": null}, "location": {"lat": 35.6812, "lng": 139.7671}, "features": ["EJU Recommended", "Portfolio Required", "Creative Arts Focus", "Global Leader in Manga Studies", "Robust Scholarship System"], "tuition": {"admission_fee": 250000, "yearly_tuition": 1450000}, "stats": {"international_students": 1000, "acceptance_rate": "Highly competitive in specific faculties (e.g., Manga)", "enrollment_total": 4500}, "link": "/school/univ_kyoto-seika-university-international-guide"}, {"id": "univ_sophia-university", "category": "university", "basic_info": {"name_ja": "上智大学", "name_en": "Sophia University", "address": "東京都千代田区紀尾井町7-1", "capacity": null}, "location": {"lat": 35.6841522, "lng": 139.7327545}, "features": ["SGU", "EJU Required", "English Program", "Dormitory", "Scholarship"], "tuition": {"admission_fee": 200000, "yearly_tuition": 1200000}, "stats": {"acceptance_rate": "20%", "international_students": 1600}, "link": "/school/univ_sophia-university"}, {"id": "school_mizuno-gaigo-gakuin", "category": "school", "basic_info": {"name_ja": "水野外語学院", "name_en": "Mizuno Language School", "address": "千葉県市川市行徳駅前4-19-14", "capacity": 80}, "location": {"lat": 35.6782349, "lng": 139.9147436}, "features": ["Dormitory", "EJU Preparation", "University Advancement", "Conversation Focus", "STEM Track", "Business Japanese", "Art & Design", "Short-term Study"], "tuition": {}, "stats": {"capacity": 80, "international_students": 0}, "link": "/school/school_mizuno-gaigo-gakuin"}, {"id": "univ_tokai-university", "category": "university", "basic_info": {"name_ja": "東海大学", "name_en": "Tokai University", "address": "4-1-1 Kitakaname, Hiratsuka, Kanagawa 259-1292, Japan", "capacity": null}, "location": {"lat": 35.6812, "lng": 139.7671}, "features": ["EJU Required", "English Program", "Dormitory", "Scholarship"], "tuition": {"admission_fee": 200000, "yearly_tuition": 1200000}, "stats": {"international_students": 1700, "acceptance_rate": "Moderately competitive (overall average approx. 30-40%)"}, "link": "/school/univ_tokai-university"}, {"id": "univ_aoyama-gakuin-university", "category": "university", "basic_info": {"name_ja": "青山学院大学", "name_en": "Aoyama Gakuin University", "address": "〒150-8366 東京都渋谷区渋谷4-4-25", "capacity": null}, "location": {"lat": 35.6606966, "lng": 139.7103651}, "features": ["SGU", "EJU Required", "English Program", "Dormitory", "Scholarship"], "tuition": {"admission_fee": 200000, "yearly_tuition": 1200000}, "stats": {"acceptance_rate": "15%", "international_students": 800}, "link": "/school/univ_aoyama-gakuin-university"}, {"id": "school_kobe-toyo-japanese-language-academy", "category": "school", "basic_info": {"name_ja": "神戸東洋日本語学院", "name_en": "Kobe Toyo Japanese Language Academy", "address": "兵庫県神戸市中央区北長狭通4-5-7", "capacity": 520}, "location": {"lat": 34.6910859, "lng": 135.187186}, "features": ["Dormitory", "Scholarships", "EJU", "Science", "University Preparation", "Conversation", "Business", "Art", "Design", "Short-Term"], "tuition": {}, "stats": {"capacity": 520, "international_students": 0}, "link": "/school/school_kobe-toyo-japanese-language-academy"}, {"id": "school_shurin-japanese-school", "category": "school", "basic_info": {"name_ja": "秀林日本語学校", "name_en": "Shurin Japanese Language School", "address": "東京都墨田区両国1-2-3", "capacity": 240}, "location": {"lat": 35.6926736, "lng": 139.7898528}, "features": ["Dormitory", "University Advancement Support", "EJU Preparation"], "tuition": {}, "stats": {"capacity": 240, "international_students": 0}, "link": "/school/school_shurin-japanese-school"}, {"id": "school_international-foreign-language-tourism-airline-college", "category": "school", "basic_info": {"name_ja": "国際外語・観光・エアライン専門学校", "name_en": "Kokusai College of Foreign Languages, Tourism and Airline", "address": "新潟県新潟市中央区古町通7番町1004番1", "capacity": 100}, "location": {"lat": 37.9232245, "lng": 139.0452561}, "features": ["Dormitory", "EJU Support", "Higher Education Progression", "Conversation Focus", "Short-term Programs"], "tuition": {}, "stats": {"capacity": 100, "international_students": 0}, "link": "/school/school_international-foreign-language-tourism-airline-college"}, {"id": "univ_tokyo-institute-of-technology", "category": "university", "basic_info": {"name_ja": "東京工業大学", "name_en": "Tokyo Institute of Technology", "address": "〒152-8550 東京都目黒区大岡山2-12-1", "capacity": null}, "location": {"lat": 35.6812, "lng": 139.7671}, "features": ["SGU", "English Program", "Dormitory", "Scholarship", "Research-Intensive"], "tuition": {"admission_fee": 282000, "yearly_tuition": 635400}, "stats": {"acceptance_rate": "20%", "international_students": 1300}, "link": "/school/univ_tokyo-institute-of-technology"}, {"id": "school_yoshida-japanese-language-academy", "category": "school", "basic_info": {"name_ja": "ヨシダ日本語学院", "name_en": "Yoshida Japanese Language Academy", "address": "東京都新宿区西早稲田1-23-14", "capacity": 240}, "location": {"lat": 35.71234889999999, "lng": 139.7181931}, "features": ["University Preparation", "EJU Exam Preparation", "Science Focused"], "tuition": {}, "stats": {"international_students": null, "capacity": 240}, "link": "/school/school_yoshida-japanese-language-academy"}, {"id": "school_aichi-kotonoha-academy", "category": "school", "basic_info": {"name_ja": "あいちコトノハ学院", "name_en": "Aichi Kotonoha Academy", "address": "愛知県岩倉市稲荷町羽根14-10", "capacity": 150}, "location": {"lat": 35.2665989, "lng": 136.8736841}, "features": ["University Preparation", "EJU Preparation", "Dormitory Available", "Conversational Japanese", "Short-Term Courses"], "tuition": {}, "stats": {"capacity": 150, "international_students": 0}, "link": "/school/school_aichi-kotonoha-academy"}, {"id": "school_kumamoto-ymca-college-japanese-language-department", "category": "school", "basic_info": {"name_ja": "熊本YMCA学院日本語科", "name_en": "Kumamoto YMCA College Japanese Language Department", "address": "熊本県熊本市中央区段山本町4-1", "capacity": 140}, "location": {"lat": 32.8064167, "lng": 130.6952676}, "features": ["Small Class Sizes", "Homework Support", "Conversation Focused", "Dormitory", "Private Rooms", "Scholarships", "EJU Preparation", "Science Course Support", "University Pathway", "Conversation Practice", "Business Japanese", "Art & Design Focus", "Short-Term Courses"], "tuition": {}, "stats": {"capacity": 140, "international_students": 0}, "link": "/school/school_kumamoto-ymca-college-japanese-language-department"}, {"id": "school_tokyo-sanritsu-gakuin-japanese-language-school-suginami", "category": "school", "basic_info": {"name_ja": "東京三立学院", "name_en": "Tokyo Sanritsu Gakuin", "address": "東京都杉並区上高井戸1-3-14", "capacity": 420}, "location": {"lat": 35.6716763, "lng": 139.613773}, "features": ["Dedicated Academic Progression Support (進学)", "Comprehensive EJU Examination Preparation", "Mandatory and Dedicated Student Dormitory Facilities", "Balanced Comprehensive Japanese Courses"], "tuition": {}, "stats": {"international_students": 400, "capacity": 420}, "link": "/school/school_tokyo-sanritsu-gakuin-japanese-language-school-suginami"}, {"id": "school_kcp-international-language-school", "category": "school", "basic_info": {"name_ja": "ＫＣＰ地球市民日本語学校", "name_en": "KCP International Language Institute", "address": "東京都新宿区新宿1-29-12　KCP本館", "capacity": 880}, "location": {"lat": 35.690589, "lng": 139.713131}, "features": ["University Preparation", "EJU Preparation", "Science Stream Support", "Dormitory Available"], "tuition": {}, "stats": {"capacity": 880, "international_students": 0}, "link": "/school/school_kcp-international-language-school"}, {"id": "school_an-language-school-narimasu", "category": "school", "basic_info": {"name_ja": "アン・ランゲージ・スクール成増校", "name_en": "AN Language School Narimasu Campus", "address": "東京都板橋区成増3-10-4", "capacity": 320}, "location": {"lat": 35.7782191, "lng": 139.6340977}, "features": ["University Preparation", "EJU Preparation", "Dormitory Available", "Near Train Station", "Excellent Living Convenience", "Personalized University Guidance"], "tuition": {}, "stats": {"capacity": 320, "international_students": 0}, "link": "/school/school_an-language-school-narimasu"}, {"id": "school_nihongo-center", "category": "school", "basic_info": {"name_ja": "日本語センター", "name_en": "KAI Japanese Language School", "address": "京都府京都市下京区河原町通仏光寺下ル富永町356", "capacity": 194}, "location": {"lat": 35.0010056, "lng": 135.7678526}, "features": ["Higher Education Prep", "EJU Support", "Conversation Skills", "Dormitory", "Science Stream (STEM)"], "tuition": {}, "stats": {"capacity": 194, "international_students": 0}, "link": "/school/school_nihongo-center"}, {"id": "school_aoyama-international-education-institute", "category": "school", "basic_info": {"name_ja": "青山国際教育学院", "name_en": "Aoyama International Education Institute", "address": "東京都港区南青山3-8-40　青山センタービル3F", "capacity": 400}, "location": {"lat": 35.6674254, "lng": 139.7151324}, "features": ["Dormitory", "University Preparation", "Business Japanese", "Short-Term Courses", "EJU Preparation"], "tuition": {}, "stats": {"capacity": 400, "international_students": 0}, "link": "/school/school_aoyama-international-education-institute"}, {"id": "school_sakura-kotonoha-japanese-language-institute-osaka", "category": "school", "basic_info": {"name_ja": "桜ことのは日本語学院", "name_en": "Sakura Kotonoha Japanese Language Institute", "address": "大阪府大阪市淀川区木川東2-8-11", "capacity": 80}, "location": {"lat": 34.7246981, "lng": 135.4912363}, "features": ["Dormitory Accommodation Guaranteed", "Intensive EJU (University Entrance Exam) Preparation", "Specialized Rikei (Science and Engineering) Track Support", "High Student-to-Teacher Ratio due to Boutique Size", "Single Room Options Available in Housing", "Robust Scholarship Programs for High Achievers"], "tuition": {}, "stats": {"international_students": 75, "capacity": 80}, "link": "/school/school_sakura-kotonoha-japanese-language-institute-osaka"}, {"id": "univ_chiba-university", "category": "university", "basic_info": {"name_ja": "千葉大学", "name_en": "Chiba University", "address": "〒263-8522 千葉県千葉市稲毛区弥生町1-33", "capacity": null}, "location": {"lat": 35.6812, "lng": 139.7671}, "features": ["SGU", "EJU Required", "English Program", "Dormitory", "Scholarship"], "tuition": {"admission_fee": 282000, "yearly_tuition": 817800}, "stats": {"acceptance_rate": "25%", "international_students": 1200}, "link": "/school/univ_chiba-university"}, {"id": "univ_doshisha-university", "category": "university", "basic_info": {"name_ja": "同志社大学", "name_en": "Doshisha University", "address": "〒602-8580 京都市上京区今出川通烏丸東入", "capacity": null}, "location": {"lat": 35.6812, "lng": 139.7671}, "features": ["SGU", "EJU Required", "English Program", "Dormitory", "Scholarship"], "tuition": {"admission_fee": 200000, "yearly_tuition": 958000}, "stats": {"international_students": 1180, "acceptance_rate": "Approximately 25-35%"}, "link": "/school/univ_doshisha-university"}, {"id": "univ_nagasaki-university", "category": "university", "basic_info": {"name_ja": "長崎大学", "name_en": "Nagasaki University", "address": "1-14 Bunkyo-machi, Nagasaki 852-8521, Japan", "capacity": null}, "location": {"lat": 35.6812, "lng": 139.7671}, "features": ["EJU Required", "English Program", "Dormitory", "Scholarship"], "tuition": {"admission_fee": 282000, "yearly_tuition": 817800}, "stats": {"international_students": 782, "acceptance_rate": "30%"}, "link": "/school/univ_nagasaki-university"}, {"id": "univ_musashino-art-university", "category": "university", "basic_info": {"name_ja": "武蔵野美術大学", "name_en": "Musashino Art University", "address": "〒187-8505 東京都小平市小川町1-736", "capacity": null}, "location": {"lat": 35.6812, "lng": 139.7671}, "features": ["EJU Required", "English Program", "Dormitory", "Scholarship"], "tuition": {"admission_fee": 300000, "yearly_tuition": 1800000}, "stats": {"international_students": 150, "acceptance_rate": "20%"}, "link": "/school/univ_musashino-art-university"}, {"id": "univ_kyoto-university", "category": "university", "basic_info": {"name_ja": "京都大学", "name_en": "Kyoto University", "address": "京都府京都市左京区吉田本町", "capacity": null}, "location": {"lat": 35.0270496, "lng": 135.7823155}, "features": ["SGU", "EJU Required", "English Program", "Dormitory", "Scholarship"], "tuition": {"admission_fee": 282000, "yearly_tuition": 535800}, "stats": {"acceptance_rate": "13%", "international_students": 2600}, "link": "/school/univ_kyoto-university"}, {"id": "school_tls-fukuroi", "category": "school", "basic_info": {"name_ja": "TLS袋井", "name_en": "TLS Fukuroi", "address": "静岡県袋井市上山梨1579-1", "capacity": 150}, "location": {"lat": 34.7914311, "lng": 137.902376}, "features": ["Advancement to Higher Education", "Daily Life Support", "Job Hunting Support", "Cultural Experiences", "Japanese Customs", "EJU Preparation", "Dormitory"], "tuition": {}, "stats": {"capacity": 150, "international_students": 0}, "link": "/school/school_tls-fukuroi"}, {"id": "school_hitachi-sakura-nihongo-gakko", "category": "school", "basic_info": {"name_ja": "日立さくら日本語学校", "name_en": "Hitachi Sakura Japanese Language School", "address": "茨城県日立市鹿島町1-7-6", "capacity": 100}, "location": {"lat": 36.5958637, "lng": 140.6511588}, "features": ["Dormitory", "EJU Preparation", "University/Vocational School Preparation", "Conversational Japanese", "Scholarships", "Private Rooms", "Science Courses", "Business Japanese", "Art Courses", "Design Courses", "Short-Term Courses"], "tuition": {}, "stats": {"capacity": 100, "international_students": 0}, "link": "/school/school_hitachi-sakura-nihongo-gakko"}, {"id": "school_j-s-l-nihon-academy", "category": "school", "basic_info": {"name_ja": "J S L日本アカデミー", "name_en": "JSL Nihon Academy", "address": "沖縄県浦添市仲西1-1-1", "capacity": 675}, "location": {"lat": 26.2493949, "lng": 127.7004683}, "features": ["Dormitory", "Scholarship", "EJU Preparation", "Science Courses", "University Pathway", "Conversational Japanese", "Business Japanese", "Art Courses", "Design Courses", "Short-term Courses"], "tuition": {}, "stats": {"capacity": 675, "international_students": 0}, "link": "/school/school_j-s-l-nihon-academy"}, {"id": "univ_tama-art-university", "category": "university", "basic_info": {"name_ja": "多摩美術大学", "name_en": "Tama Art University", "address": "〒154-8526 東京都世田谷区上野毛3-15-34", "capacity": null}, "location": {"lat": 35.6812, "lng": 139.7671}, "features": ["EJU Required", "English Program", "Dormitory", "Scholarship"], "tuition": {"admission_fee": 300000, "yearly_tuition": 1700000}, "stats": {"international_students": 130, "acceptance_rate": "20%"}, "link": "/school/univ_tama-art-university"}, {"id": "univ_tokyo-university-of-science", "category": "university", "basic_info": {"name_ja": "東京理科大学", "name_en": "Tokyo University of Science", "address": "東京都新宿区神楽坂1-3", "capacity": null}, "location": {"lat": 35.7011702, "lng": 139.7432783}, "features": ["English Program", "Dormitory", "Scholarship"], "tuition": {"admission_fee": 250000, "yearly_tuition": 1600000}, "stats": {"acceptance_rate": "30%", "international_students": 700}, "link": "/school/univ_tokyo-university-of-science"}, {"id": "univ_fukuoka-university-guide", "category": "university", "basic_info": {"name_ja": "福岡大学", "name_en": "Fukuoka University", "address": "〒814-0180 福岡県福岡市城南区七隈8丁目19-1", "capacity": null}, "location": {"lat": 35.6812, "lng": 139.7671}, "features": ["Large Comprehensive Private University", "Leading Institution in Kyushu", "EJU Required (for most programs)", "Strong Medical and Engineering Faculties", "Affordable City Living", "Comprehensive Scholarship System"], "tuition": {"admission_fee": 300000, "yearly_tuition": 1300000}, "stats": {"international_students": 550, "acceptance_rate": "Varies Widely (Estimated 20-35% for general admission)"}, "link": "/school/univ_fukuoka-university-guide"}, {"id": "school_nihongo-gakko-tsukuba-smile", "category": "school", "basic_info": {"name_ja": "日本語学校つくばスマイル", "name_en": "Tsukuba Smile Japanese Language School", "address": "茨城県取手市戸頭1142-1", "capacity": 100}, "location": {"lat": 35.920848, "lng": 140.0034302}, "features": ["Dormitory", "EJU Preparation", "Higher Education Progression", "Short-term Courses"], "tuition": {}, "stats": {"capacity": 100, "international_students": 0}, "link": "/school/school_nihongo-gakko-tsukuba-smile"}, {"id": "school_koubun-international-language-school", "category": "school", "basic_info": {"name_ja": "コウブンインターナショナル", "name_en": "Koubun International Language School", "address": "愛知県新城市大野字上貝津７441-1615", "capacity": 100}, "location": {"lat": 34.952635, "lng": 137.610017}, "features": ["University Preparation Focused", "EJU and JLPT Specialized Training", "Mandatory or Recommended Dormitory System", "Science (Rika) and Math Pathway Support", "Art and Design Pathway Specialization", "Business and Advanced Conversation Classes", "High Scholarship Availability", "Small Capacity for Personalized Guidance", "Study Environment in Rural Aichi (Shinshiro)"], "tuition": {}, "stats": {}, "link": "/school/school_koubun-international-language-school"}, {"id": "univ_yokohama-national-university", "category": "university", "basic_info": {"name_ja": "横浜国立大学", "name_en": "Yokohama National University", "address": "〒240-8501 神奈川県横浜市保土ケ谷区常盤台79-1", "capacity": null}, "location": {"lat": 35.6812, "lng": 139.7671}, "features": ["English Program", "Dormitory", "Scholarship"], "tuition": {"admission_fee": 282000, "yearly_tuition": 817800}, "stats": {"acceptance_rate": "30%", "international_students": 900}, "link": "/school/univ_yokohama-national-university"}, {"id": "school_unitas-japanese-language-school-tokyo-campus", "category": "school", "basic_info": {"name_ja": "ユニタス日本語学校東京校", "name_en": "UNITAS Japanese Language School, Tokyo Campus", "address": "東京都新宿区大久保2-2-9 22山京ビル3Ｆ", "capacity": 840}, "location": {"lat": 35.7027498, "lng": 139.7086461}, "features": ["Intensive University and Graduate School Preparation (Shingaku)", "Dedicated EJU (Examination for Japanese University Admission) and JLPT (Japanese Language Proficiency Test) Training", "High Capacity and Diverse International Student Body", "Prime Location in Shin-Okubo, Shinjuku (Tokyo's Core)", "Generous Scholarship Opportunities and Financial Aid"], "tuition": {}, "stats": {}, "link": "/school/school_unitas-japanese-language-school-tokyo-campus"}, {"id": "school_hiroshima-ymca-specialized-school", "category": "school", "basic_info": {"name_ja": "広島ＹＭＣＡ専門学校", "name_en": "Hiroshima YMCA College", "address": "広島県広島市中区八丁堀7-11", "capacity": 300}, "location": {"lat": 34.3961859, "lng": 132.4620773}, "features": ["University Preparation", "EJU Preparation", "Conversational Japanese", "Dormitory Available", "Science Focus"], "tuition": {}, "stats": {"capacity": 300, "international_students": 0}, "link": "/school/school_hiroshima-ymca-specialized-school"}, {"id": "univ_nihon-university", "category": "university", "basic_info": {"name_ja": "日本大学", "name_en": "Nihon University", "address": "東京都千代田区九段南4-8-24", "capacity": null}, "location": {"lat": 35.6909869, "lng": 139.7375709}, "features": ["EJU Required", "English Program", "Dormitory", "Scholarship"], "tuition": {"admission_fee": 200000, "yearly_tuition": 1200000}, "stats": {"international_students": 1500, "acceptance_rate": "30%"}, "link": "/school/univ_nihon-university"}, {"id": "school_chuogakuen-japanese-language-school", "category": "school", "basic_info": {"name_ja": "中央工学校附属日本語学校", "name_en": "Chuo College of Engineering Japanese Language School", "address": "東京都北区東田端1-4-8", "capacity": 224}, "location": {"lat": 35.7381196, "lng": 139.7641918}, "features": ["University Preparation", "EJU Preparation", "Dormitory Available", "Science Focused"], "tuition": {}, "stats": {"capacity": 224, "international_students": 0}, "link": "/school/school_chuogakuen-japanese-language-school"}, {"id": "univ_seinan-gakuin-university-fukuoka", "category": "university", "basic_info": {"name_ja": "西南学院大学", "name_en": "Seinan Gakuin University", "address": "〒814-8511 福岡県福岡市早良区西新6丁目2-92", "capacity": null}, "location": {"lat": 35.6812, "lng": 139.7671}, "features": ["Top Regional Private University", "Christian Foundation", "EJU Preferred", "Fukuoka Location (Low Cost of Living)", "Robust International Exchange"], "tuition": {"admission_fee": 250000, "yearly_tuition": 1150000}, "stats": {"international_students": 650, "acceptance_rate": "Highly competitive (Varies by Faculty)"}, "link": "/school/univ_seinan-gakuin-university-fukuoka"}, {"id": "univ_tohoku-university", "category": "university", "basic_info": {"name_ja": "東北大学", "name_en": "Tohoku University", "address": "宮城県仙台市青葉区片平二丁目1-1", "capacity": null}, "location": {"lat": 38.2515119, "lng": 140.8753007}, "features": ["SGU", "EJU Required", "English Program", "Dormitory", "Scholarship"], "tuition": {"admission_fee": 282000, "yearly_tuition": 535800}, "stats": {"international_students": 2344, "acceptance_rate": "25%"}, "link": "/school/univ_tohoku-university"}, {"id": "school_asuka-gakuin", "category": "school", "basic_info": {"name_ja": "飛鳥学院", "name_en": "Asuka Academy", "address": "神奈川県横浜市中区日ノ出町1-36", "capacity": 594}, "location": {"lat": 35.44512, "lng": 139.6266009}, "features": ["Dormitory", "EJU Preparation", "University Pathway", "Conversation Focus", "Short-Term Courses", "Science Focused"], "tuition": {}, "stats": {"capacity": 594, "international_students": 0}, "link": "/school/school_asuka-gakuin"}, {"id": "school_kij-language-academy", "category": "school", "basic_info": {"name_ja": "ＫＩＪ語学院", "name_en": "KIJ Language Academy", "address": "兵庫県神戸市兵庫区浜崎通3-7", "capacity": 510}, "location": {"lat": 34.667686, "lng": 135.1661889}, "features": ["Scholarships", "University Preparation", "Dormitory", "EJU Preparation", "Science Course", "Conversation Focused", "Business Japanese", "Art Course", "Design Course", "Short-Term Course"], "tuition": {}, "stats": {"international_students": 123, "capacity": 456}, "link": "/school/school_kij-language-academy"}, {"id": "univ_niigata-university", "category": "university", "basic_info": {"name_ja": "新潟大学", "name_en": "Niigata University", "address": "8050 Ikarashi 2-no-cho, Nishi-ku, Niigata City, Niigata Prefecture 950-2181", "capacity": null}, "location": {"lat": 35.6812, "lng": 139.7671}, "features": ["EJU Required", "English Program", "Dormitory", "Scholarship"], "tuition": {"admission_fee": 282000, "yearly_tuition": 535800}, "stats": {"international_students": 610, "acceptance_rate": "Varies by Faculty"}, "link": "/school/univ_niigata-university"}, {"id": "school_yokohama-mirai-nihongo-gakuin", "category": "school", "basic_info": {"name_ja": "横浜みらい日本語学院", "name_en": "Yokohama Mirai Japanese Language Academy", "address": "神奈川県横浜市南区六ツ川1-873 東洋物産ビル303", "capacity": 87}, "location": {"lat": 35.42413130000001, "lng": 139.5848831}, "features": ["University Preparation", "Conversation Focused", "EJU Preparation", "Dormitory Available", "Science Stream", "Business Japanese", "Art", "Design", "Short-Term Courses"], "tuition": {}, "stats": {"capacity": 87, "international_students": 0}, "link": "/school/school_yokohama-mirai-nihongo-gakuin"}, {"id": "school_elite-japanese-language-school-shinjuku-tokyo", "category": "school", "basic_info": {"name_ja": "エリート日本語学校", "name_en": "Elite Japanese Language School (エリート日本語学校)", "address": "東京都新宿区歌舞伎町2-44-1 東京都健康プラザハイジア12階", "capacity": 1000}, "location": {"lat": 35.6968313, "lng": 139.7013503}, "features": ["Dedicated Higher Education Advancement Program (EJU Preparation)", "Robust Internal and External Scholarship Opportunities", "School-Affiliated Dormitory and Accommodation Support", "Prime Location in Shinjuku, Tokyo", "Quarterly Intake Flexibility (April, July, October, January)"], "tuition": {}, "stats": {"international_students": 950, "capacity": 1000}, "link": "/school/school_elite-japanese-language-school-shinjuku-tokyo"}, {"id": "school_abenonihongogakuin", "category": "school", "basic_info": {"name_ja": "阿倍野日本語学院", "name_en": "Abeno Japanese Language Institute", "address": "大阪府大阪市阿倍野区阪南町4-12-1", "capacity": 220}, "location": {"lat": 34.6255119, "lng": 135.5154831}, "features": ["University Preparation", "Conversation Focus", "Dormitory", "EJU Preparation", "Short-Term Courses"], "tuition": {}, "stats": {"capacity": 220, "international_students": 0}, "link": "/school/school_abenonihongogakuin"}, {"id": "univ_kumamoto-university", "category": "university", "basic_info": {"name_ja": "熊本大学", "name_en": "Kumamoto University", "address": "〒860-8555 熊本県熊本市中央区黒髪2丁目40番1号", "capacity": null}, "location": {"lat": 35.6812, "lng": 139.7671}, "features": ["EJU Required", "English Program", "Dormitory", "Scholarship"], "tuition": {"admission_fee": 282000, "yearly_tuition": 535800}, "stats": {"international_students": 465, "acceptance_rate": "30%"}, "link": "/school/univ_kumamoto-university"}, {"id": "univ_rikkyo-university", "category": "university", "basic_info": {"name_ja": "立教大学", "name_en": "Rikkyo University", "address": "東京都豊島区西池袋3-34-1", "capacity": null}, "location": {"lat": 35.7307392, "lng": 139.7032933}, "features": ["SGU", "EJU Required", "English Program", "Dormitory", "Scholarship"], "tuition": {"admission_fee": 200000, "yearly_tuition": 1200000}, "stats": {"international_students": 1100, "acceptance_rate": "25%"}, "link": "/school/univ_rikkyo-university"}, {"id": "school_aso-foreign-language-tourism-bridal-college", "category": "school", "basic_info": {"name_ja": "麻生外語観光＆ブライダル専門学校", "name_en": "ASO College of Foreign Languages, Tourism and Bridal", "address": "福岡県福岡市博多区博多駅南1-14-17", "capacity": 280}, "location": {"lat": 33.5837257, "lng": 130.4216656}, "features": ["Further Education Support", "Conversation-Focused", "Scholarships", "Dormitory", "City Center Location", "EJU Preparation", "Short-Term Courses"], "tuition": {}, "stats": {"capacity": 280, "international_students": 0}, "link": "/school/school_aso-foreign-language-tourism-bridal-college"}, {"id": "school_tokai-gakuin-college-of-culture-and-liberal-arts", "category": "school", "basic_info": {"name_ja": "東海学院文化教養専門学校", "name_en": "Tokai Gakuin College of Culture and Liberal Arts", "address": "茨城県取手市井野台1-22-14", "capacity": 100}, "location": {"lat": 35.9016862, "lng": 140.0696198}, "features": ["Dormitory Available", "EJU Preparation", "Higher Education Support", "Conversation-focused Classes", "Short-term Study Options"], "tuition": {}, "stats": {"capacity": 100, "international_students": 100}, "link": "/school/school_tokai-gakuin-college-of-culture-and-liberal-arts"}, {"id": "univ_kyushu-university", "category": "university", "basic_info": {"name_ja": "九州大学", "name_en": "Kyushu University", "address": "福岡県福岡市東区箱崎６丁目１０−１", "capacity": null}, "location": {"lat": 33.6227692, "lng": 130.4253123}, "features": ["SGU", "EJU Required", "English Program", "Dormitory", "Scholarship"], "tuition": {"admission_fee": 282000, "yearly_tuition": 535800}, "stats": {"international_students": 2500, "acceptance_rate": "25%"}, "link": "/school/univ_kyushu-university"}, {"id": "univ_hiroshima-university", "category": "university", "basic_info": {"name_ja": "広島大学", "name_en": "Hiroshima University", "address": "広島県東広島市鏡山一丁目7番1号", "capacity": null}, "location": {"lat": 35.6812, "lng": 139.7671}, "features": ["SGU", "EJU Required", "English Program", "Dormitory", "Scholarship"], "tuition": {"admission_fee": 282000, "yearly_tuition": 535800}, "stats": {"acceptance_rate": "35%", "international_students": 1200}, "link": "/school/univ_hiroshima-university"}, {"id": "univ_asia-university", "category": "university", "basic_info": {"name_ja": "亜細亜大学", "name_en": "Asia University", "address": "〒180-8629 東京都武蔵野市境5-8", "capacity": null}, "location": {"lat": 35.6812, "lng": 139.7671}, "features": ["English Program", "Dormitory", "Scholarship"], "tuition": {"admission_fee": 200000, "yearly_tuition": 1100000}, "stats": {"international_students": 200, "acceptance_rate": "Not publicly disclosed; generally competitive."}, "link": "/school/univ_asia-university"}, {"id": "univ_hosei-university", "category": "university", "basic_info": {"name_ja": "法政大学", "name_en": "Hosei University", "address": "〒102-8160 東京都千代田区富士見2-17-1", "capacity": null}, "location": {"lat": 35.6958744, "lng": 139.7408827}, "features": ["SGU", "EJU Required", "English Program", "Dormitory", "Scholarship"], "tuition": {"admission_fee": 200000, "yearly_tuition": 1200000}, "stats": {"international_students": 1500, "acceptance_rate": "25%"}, "link": "/school/univ_hosei-university"}, {"id": "school_shinjuku-gyoen-gakuin", "category": "school", "basic_info": {"name_ja": "新宿御苑学院", "name_en": "Shinjuku Gyoen Gakuin Japanese Language School", "address": "東京都新宿区新宿2-3-13", "capacity": 174}, "location": {"lat": 35.68910839999999, "lng": 139.7081169}, "features": ["University Advancement", "Small Class Sizes", "Dormitory Available", "EJU Preparation"], "tuition": {}, "stats": {"capacity": 174, "international_students": 0}, "link": "/school/school_shinjuku-gyoen-gakuin"}, {"id": "school_tokyo-international-business-college-japanese-dept", "category": "school", "basic_info": {"name_ja": "専門学校東京国際ビジネスカレッジ日本語学科", "name_en": "Tokyo International Business College, Japanese Language Department", "address": "東京都台東区柳橋2-7-5", "capacity": 200}, "location": {"lat": 35.6990301, "lng": 139.7877541}, "features": ["Higher Education Advancement Focus", "EJU Preparation", "Dormitory Provided", "Conversation and Speaking Skills Emphasis"], "tuition": {}, "stats": {"international_students": 190, "capacity": 200}, "link": "/school/school_tokyo-international-business-college-japanese-dept"}, {"id": "univ_teikyo-university", "category": "university", "basic_info": {"name_ja": "帝京大学", "name_en": "Teikyo University", "address": "2-11-1 Kaga, Itabashi-ku, Tokyo 173-8605, Japan", "capacity": null}, "location": {"lat": 35.6812, "lng": 139.7671}, "features": ["EJU Required", "English Programs", "Dormitory", "Scholarship", "Practical Learning Focus", "Comprehensive University"], "tuition": {"admission_fee": 200000, "yearly_tuition": 1000000}, "stats": {"international_students": 2000, "acceptance_rate": "Varies by faculty, generally competitive"}, "link": "/school/univ_teikyo-university"}, {"id": "school_trinity-college-izumo-medical-welfare", "category": "school", "basic_info": {"name_ja": "トリニティカレッジ出雲医療福祉専門学校", "name_en": "Trinity College Izumo Medical and Welfare Vocational School", "address": "島根県出雲市西新町3-23-1", "capacity": 60}, "location": {"lat": 35.332186, "lng": 132.722255}, "features": ["Dormitory", "Private Room", "Scholarships", "EJU Preparation", "Science Focused", "University Advancement", "Conversational Japanese", "Business Japanese", "Art", "Design", "Short-Term Courses"], "tuition": {}, "stats": {"capacity": 60, "international_students": 0}, "link": "/school/school_trinity-college-izumo-medical-welfare"}, {"id": "univ_tokyo-university-of-the-arts", "category": "university", "basic_info": {"name_ja": "東京藝術大学", "name_en": "Tokyo University of the Arts", "address": "〒110-8714 東京都台東区上野公園12-8", "capacity": null}, "location": {"lat": 35.6812, "lng": 139.7671}, "features": ["National University", "EJU Required", "Scholarship", "Dormitory"], "tuition": {"admission_fee": 282000, "yearly_tuition": 535800}, "stats": {"international_students": 150, "acceptance_rate": "8%"}, "link": "/school/univ_tokyo-university-of-the-arts"}, {"id": "school_seifu-jouhou-kougakuin-senmon-gakkou-nihongo-ka", "category": "school", "basic_info": {"name_ja": "清風情報工科学院日本語科", "name_en": "Seifu Information Engineering Academy Japanese Language Department", "address": "大阪府大阪市阿倍野区丸山通1-6-3", "capacity": 336}, "location": {"lat": 34.6364928, "lng": 135.5097676}, "features": ["University Preparation", "EJU Exam Preparation", "Dormitory", "Vocational School Preparation", "Conversation Focused", "Business Japanese", "Art & Design Focus", "Short-term Courses", "Scholarships Available", "Private Dorm Rooms", "Science Focused"], "tuition": {}, "stats": {"capacity": 336, "international_students": 0}, "link": "/school/school_seifu-jouhou-kougakuin-senmon-gakkou-nihongo-ka"}, {"id": "school_shinsekai-japanese-language-school-shinjuku", "category": "school", "basic_info": {"name_ja": "新世界語学院", "name_en": "Shinsekai Japanese Language School", "address": "東京都新宿区百人町2-7-9 STKビル2F", "capacity": 180}, "location": {"lat": 35.7041296, "lng": 139.6995464}, "features": ["Intensive Academic Progression Focus (University/Graduate School)", "Guaranteed Dormitory Accommodation Support", "Specialized EJU (Examination for Japanese University Admission) Preparation"], "tuition": {}, "stats": {}, "link": "/school/school_shinsekai-japanese-language-school-shinjuku"}, {"id": "univ_shizuoka-university", "category": "university", "basic_info": {"name_ja": "静岡大学", "name_en": "Shizuoka University", "address": "836 Ohya, Suruga Ward, Shizuoka, 422-8529, Japan", "capacity": null}, "location": {"lat": 35.6812, "lng": 139.7671}, "features": ["EJU Required", "English Program", "Dormitory", "Scholarship"], "tuition": {"admission_fee": 282000, "yearly_tuition": 535800}, "stats": {"international_students": 600, "acceptance_rate": "20-30%"}, "link": "/school/univ_shizuoka-university"}, {"id": "school_one-purpose-international-academy", "category": "school", "basic_info": {"name_ja": "ワン・パーパス国際学院", "name_en": "One Purpose International Academy", "address": "大阪府大阪市都島区大東町3-6-18", "capacity": 178}, "location": {"lat": 34.72760590000001, "lng": 135.5278571}, "features": ["Dormitory", "Scholarships", "EJU Preparation", "University Admission", "Business Japanese", "Short-term Courses", "Conversational Japanese"], "tuition": {}, "stats": {"capacity": 178, "international_students": 0}, "link": "/school/school_one-purpose-international-academy"}, {"id": "univ_kansai-university", "category": "university", "basic_info": {"name_ja": "関西大学", "name_en": "Kansai University", "address": "3-3-35 Yamate-cho, Suita-shi, Osaka 564-8680, Japan", "capacity": null}, "location": {"lat": 35.6812, "lng": 139.7671}, "features": ["EJU Required", "English Program", "Dormitory", "Scholarship"], "tuition": {"admission_fee": 270000, "yearly_tuition": 1100000}, "stats": {"international_students": 1043, "acceptance_rate": "Highly competitive, varies significantly by faculty and program."}, "link": "/school/univ_kansai-university"}, {"id": "school_kankyu-japanese-language-academy", "category": "school", "basic_info": {"name_ja": "環球日本語学習院", "name_en": "Global Japanese Language Institute", "address": "宮城県仙台市青葉区土樋1-1-15", "capacity": 380}, "location": {"lat": 38.2485677, "lng": 140.8795331}, "features": ["EJU Preparation", "University Advancement Support", "STEM/Science Stream Prep", "Dormitory Available", "Single Rooms Available", "Scholarship Programs", "Conversation-focused Classes", "Business Japanese", "Art & Design Prep", "Short-term Courses"], "tuition": {}, "stats": {"capacity": 380, "international_students": 0}, "link": "/school/school_kankyu-japanese-language-academy"}, {"id": "school_manabi-japanese-language-institute-tokyo-school", "category": "school", "basic_info": {"name_ja": "ＭＡＮＡＢＩ外語学院東京校", "name_en": "MANABI Japanese Language Institute Tokyo Campus", "address": "東京都墨田区両国2-10-5", "capacity": 720}, "location": {"lat": 35.6940159, "lng": 139.7913053}, "features": ["Higher Education Progression", "EJU Preparation", "Dormitory Available", "Short-term Courses"], "tuition": {}, "stats": {"capacity": 720, "international_students": 0}, "link": "/school/school_manabi-japanese-language-institute-tokyo-school"}, {"id": "univ_shinshu-university", "category": "university", "basic_info": {"name_ja": "信州大学", "name_en": "Shinshu University", "address": "長野県松本市旭3-1-1", "capacity": null}, "location": {"lat": 35.6812, "lng": 139.7671}, "features": ["EJU Required", "English Program", "Dormitory", "Scholarship"], "tuition": {"admission_fee": 282000, "yearly_tuition": 535800}, "stats": {"international_students": 400, "acceptance_rate": "60%"}, "link": "/school/univ_shinshu-university"}, {"id": "school_yell-gakuen-japanese-language-education-department", "category": "school", "basic_info": {"name_ja": "エール学園日本語教育学科", "name_en": "Yell Gakuen Japanese Language Education Department", "address": "大阪府大阪市浪速区難波中3-13-1", "capacity": 640}, "location": {"lat": 34.6603803, "lng": 135.5001688}, "features": ["High-Level University Progression Focus (EJU and Entrance Exam Preparation)", "Specialized Tracks (Science, Art/Design, Business Japanese)", "Large Capacity and Central Osaka Location (Namba)", "School-Managed Dormitories with Single Room Options", "Robust Scholarship and Financial Aid Programs", "Short-Term Study Options Available"], "tuition": {}, "stats": {"international_students": 600, "capacity": 640}, "link": "/school/school_yell-gakuen-japanese-language-education-department"}, {"id": "univ_kwansei-gakuin-university", "category": "university", "basic_info": {"name_ja": "関西学院大学", "name_en": "Kwansei Gakuin University", "address": "〒662-8501 兵庫県西宮市上ケ原一番町1-1", "capacity": null}, "location": {"lat": 35.6812, "lng": 139.7671}, "features": ["EJU Required", "English Program", "Dormitory", "Scholarship"], "tuition": {"admission_fee": 200000, "yearly_tuition": 1200000}, "stats": {"international_students": 957, "acceptance_rate": "Competitive, varies by faculty"}, "link": "/school/univ_kwansei-gakuin-university"}, {"id": "school_nihongo-gaku-gakko", "category": "school", "basic_info": {"name_ja": "日本語学学校", "name_en": "Kyoto Minsai Japanese Language School", "address": "福岡県北九州市八幡西区岸の浦1-13-70", "capacity": 220}, "location": {"lat": 33.8563769, "lng": 130.7642517}, "features": ["Dormitory", "Scholarship", "EJU Preparation", "Science Focus", "University Preparation", "Conversation Focus", "Business Japanese", "Art & Design Focus", "Short-Term Courses"], "tuition": {}, "stats": {"capacity": 220, "international_students": 0}, "link": "/school/school_nihongo-gaku-gakko"}, {"id": "school_higashi-shinjuku-japanese-language-institute", "category": "school", "basic_info": {"name_ja": "東新宿日本語学院", "name_en": "Higashi Shinjuku Japanese Language Institute", "address": "東京都新宿区新宿7-18-7", "capacity": 286}, "location": {"lat": 35.7009145, "lng": 139.7106059}, "features": ["Higher Education Advancement (進学)", "Small Class Sizes (少人数制)", "Dormitory Accommodation (기숙사)", "EJU Preparation Support"], "tuition": {}, "stats": {"international_students": 270, "capacity": 286}, "link": "/school/school_higashi-shinjuku-japanese-language-institute"}, {"id": "school_osaka-minami-japanese-language-school", "category": "school", "basic_info": {"name_ja": "大阪みなみ日本語学校", "name_en": "Osaka Minami Japanese Language School", "address": "大阪府大阪市平野区喜連5-2-38", "capacity": 136}, "location": {"lat": 34.613996, "lng": 135.5545347}, "features": ["Dormitory Available", "EJU Preparation", "University Advancement Focus", "Short-term Courses", "Science Stream Support"], "tuition": {}, "stats": {"capacity": 136, "international_students": 0}, "link": "/school/school_osaka-minami-japanese-language-school"}, {"id": "school_toyo-language-school-tokyo", "category": "school", "basic_info": {"name_ja": "東洋言語学院", "name_en": "Toyo Language School", "address": "東京都江戸川区西葛西7-6-3", "capacity": 700}, "location": {"lat": 35.658852, "lng": 139.8592806}, "features": ["High-Capacity Institution (700 students)", "Strong Academic Advancement (進学) Focus", "Mandatory Dormitory (기숙사) Options Available", "Specialized EJU & Graduate School Preparation", "Dedicated Art and Design Pathway Programs", "Multiple Entry Points (4, 7, 10, 1 month)", "Located in Tokyo (Edogawa Ward)"], "tuition": {}, "stats": {}, "link": "/school/school_toyo-language-school-tokyo"}, {"id": "univ_kindai-university", "category": "university", "basic_info": {"name_ja": "近畿大学", "name_en": "Kindai University", "address": "大阪府東大阪市小若江3-4-1", "capacity": null}, "location": {"lat": 35.6812, "lng": 139.7671}, "features": ["English Program", "Dormitory", "Scholarship"], "tuition": {"admission_fee": 200000, "yearly_tuition": 1200000}, "stats": {"acceptance_rate": "35%", "international_students": 1200}, "link": "/school/univ_kindai-university"}, {"id": "univ_konan-university", "category": "university", "basic_info": {"name_ja": "甲南大学", "name_en": "Konan University", "address": "〒658-8501 兵庫県神戸市東灘区岡本8丁目9番1号", "capacity": null}, "location": {"lat": 35.6812, "lng": 139.7671}, "features": ["Dormitory", "Scholarship", "English Program"], "tuition": {"admission_fee": 200000, "yearly_tuition": 1200000}, "stats": {"acceptance_rate": "30%", "international_students": 200}, "link": "/school/univ_konan-university"}, {"id": "univ_kyoto-sangyo-university", "category": "university", "basic_info": {"name_ja": "京都産業大学", "name_en": "Kyoto Sangyo University", "address": "〒603-8555 京都府京都市北区上賀茂本山", "capacity": null}, "location": {"lat": 35.6812, "lng": 139.7671}, "features": ["EJU Required", "English-Taught Courses", "Dormitory", "Scholarship"], "tuition": {"admission_fee": 200000, "yearly_tuition": 1020000}, "stats": {"international_students": 369, "acceptance_rate": "Competitive, varies by faculty and entrance exam type"}, "link": "/school/univ_kyoto-sangyo-university"}, {"id": "school_kochi-gakuen-japanese-language-school", "category": "school", "basic_info": {"name_ja": "行知学園日本語学校", "name_en": "Gyochi Gakuen Japanese Language School", "address": "東京都新宿区百人町1-6-21", "capacity": 505}, "location": {"lat": 35.7006419, "lng": 139.7013008}, "features": ["Dormitory", "University Advancement", "EJU Preparation"], "tuition": {}, "stats": {"capacity": 505, "international_students": 0}, "link": "/school/school_kochi-gakuen-japanese-language-school"}, {"id": "univ_osaka-university", "category": "university", "basic_info": {"name_ja": "大阪大学", "name_en": "Osaka University", "address": "〒565-0871 大阪府吹田市山田丘1-1", "capacity": null}, "location": {"lat": 34.8171478, "lng": 135.5227115}, "features": ["SGU", "EJU Required", "English Program", "Dormitory", "Scholarship"], "tuition": {"admission_fee": 282000, "yearly_tuition": 535800}, "stats": {"international_students": 3000, "acceptance_rate": "15%"}, "link": "/school/univ_osaka-university"}, {"id": "school_sam-kyoiku-gakuin", "category": "school", "basic_info": {"name_ja": "サム教育学院", "name_en": "Samu Language School", "address": "東京都新宿区百人町2-1-6", "capacity": 540}, "location": {"lat": 35.7017033, "lng": 139.7017375}, "features": ["University Preparation", "EJU Preparation", "Science Courses", "Higher Education Guidance", "Short-Term Courses"], "tuition": {}, "stats": {"capacity": 540, "international_students": 0}, "link": "/school/school_sam-kyoiku-gakuin"}, {"id": "school_kyoto-min-sai-japanese-language-school", "category": "school", "basic_info": {"name_ja": "京都民際日本語学校", "name_en": "Kyoto Min-Sai Japanese Language School", "address": "京都府京都市右京区西京極北大入町69", "capacity": 542}, "location": {"lat": 34.9990854, "lng": 135.7164451}, "features": ["Dedicated Dormitory/Accommodation Support", "High-level EJU (Examination for Japanese University Admission for International Students) Preparation", "Specialized Science Track Support (Rika)", "Intensive University and Graduate School Progression Counseling", "Focus on Practical Conversational Fluency", "Flexible Short-Term and General Study Options"], "tuition": {}, "stats": {"international_students": 450, "capacity": 542}, "link": "/school/school_kyoto-min-sai-japanese-language-school"}, {"id": "school_okazaki-japanese-language-school-aichi", "category": "school", "basic_info": {"name_ja": "岡崎日本語学校", "name_en": "Okazaki Japanese Language School (岡崎日本語学校)", "address": "愛知県岡崎市康生通西1-1", "capacity": 225}, "location": {"lat": 34.9581363, "lng": 137.1634787}, "features": ["High-Focus Academic Progression (Shin-gaku) Curriculum", "Specialized EJU and Entrance Exam Preparation Tracks (Science, Humanities, Art/Design)", "Comprehensive Student Dormitory Management and Support", "Robust Scholarship and Financial Aid Opportunities", "Strong Conversational and Business Japanese Integration"], "tuition": {}, "stats": {}, "link": "/school/school_okazaki-japanese-language-school-aichi"}, {"id": "school_north-river-japanese-school", "category": "school", "basic_info": {"name_ja": "ノースリバー日本語スクール", "name_en": "North River Japanese Language School", "address": "愛知県名古屋市中村区畑江通2-8-3", "capacity": 300}, "location": {"lat": 35.1578036, "lng": 136.8679573}, "features": ["University Preparatory", "EJU Preparation", "Dormitory Available", "Scholarships Available", "Single Rooms Available", "Science Stream Support", "Conversation Practice", "Business Japanese", "Art & Design Prep", "Short-term Courses"], "tuition": {}, "stats": {"capacity": 300, "international_students": 0}, "link": "/school/school_north-river-japanese-school"}, {"id": "school_toshin-language-school", "category": "school", "basic_info": {"name_ja": "東進ランゲージスクール", "name_en": "Toshin Language School", "address": "東京都新宿区高田馬場3-28-1 第六康洋ビル", "capacity": 900}, "location": {"lat": 35.7152394, "lng": 139.6967414}, "features": ["University Preparation", "EJU Preparation", "Science Focused"], "tuition": {}, "stats": {"capacity": 900, "international_students": 0}, "link": "/school/school_toshin-language-school"}, {"id": "univ_university-of-tsukuba", "category": "university", "basic_info": {"name_ja": "筑波大学", "name_en": "University of Tsukuba", "address": "〒305-8577　茨城県つくば市天王台1-1-1", "capacity": null}, "location": {"lat": 35.6812, "lng": 139.7671}, "features": ["SGU", "EJU Required", "English Program", "Dormitory", "Scholarship"], "tuition": {"admission_fee": 282000, "yearly_tuition": 535800}, "stats": {"international_students": 2000, "acceptance_rate": "25%"}, "link": "/school/univ_university-of-tsukuba"}, {"id": "univ_hokkaido-university", "category": "university", "basic_info": {"name_ja": "北海道大学", "name_en": "Hokkaido University", "address": "〒060-0808 北海道札幌市北区北8条西5丁目", "capacity": null}, "location": {"lat": 43.0703209, "lng": 141.3470456}, "features": ["SGU", "EJU Required", "English Program", "Dormitory", "Scholarship"], "tuition": {"admission_fee": 282000, "yearly_tuition": 535800}, "stats": {"international_students": 2000, "acceptance_rate": "20%"}, "link": "/school/univ_hokkaido-university"}, {"id": "univ_kobe-university", "category": "university", "basic_info": {"name_ja": "神戸大学", "name_en": "Kobe University", "address": "〒657-8501 兵庫県神戸市灘区六甲台町2-1", "capacity": null}, "location": {"lat": 35.6812, "lng": 139.7671}, "features": ["SGU", "English Program", "Dormitory", "Scholarship", "Exchange Program"], "tuition": {"admission_fee": 282000, "yearly_tuition": 535800}, "stats": {"acceptance_rate": "20%", "international_students": 1500}, "link": "/school/univ_kobe-university"}, {"id": "school_communica-institute", "category": "school", "basic_info": {"name_ja": "コミュニカ学院", "name_en": "Communica Institute", "address": "兵庫県神戸市中央区東町116-2", "capacity": 192}, "location": {"lat": 34.6887544, "lng": 135.1951957}, "features": ["Dormitory Available", "EJU Preparation", "Higher Education Support", "Conversation-focused Curriculum", "Short-term Study Options", "Science/STEM Track Support"], "tuition": {}, "stats": {"capacity": 192, "international_students": 0}, "link": "/school/school_communica-institute"}, {"id": "school_kokusai-academy-japanese-language-institute", "category": "school", "basic_info": {"name_ja": "国際アカデミー日本語学院", "name_en": "Kokusai Academy Japanese Language Institute", "address": "東京都豊島区池袋3-28-1", "capacity": 180}, "location": {"lat": 35.7348296, "lng": 139.7057883}, "features": ["University Admission Focus", "EJU Preparation", "Dormitory Provided", "Short-term Study Options", "Business Japanese", "Prime Tokyo Location (Ikebukuro)"], "tuition": {}, "stats": {"international_students": 165, "capacity": 180}, "link": "/school/school_kokusai-academy-japanese-language-institute"}, {"id": "school_shinjuku-heiwa-japanese-language-school", "category": "school", "basic_info": {"name_ja": "新宿平和日本語学校", "name_en": "Shinjuku Heiwa Japanese Language School", "address": "東京都新宿区百人町1-13-14", "capacity": 140}, "location": {"lat": 35.6996072, "lng": 139.6991275}, "features": ["Dormitory", "University Advancement", "Conversation Focus", "EJU Preparation"], "tuition": {}, "stats": {"capacity": 140, "international_students": 0}, "link": "/school/school_shinjuku-heiwa-japanese-language-school"}, {"id": "school_nagoya-sky-japanese-language-school", "category": "school", "basic_info": {"name_ja": "名古屋ＳＫＹ日本語学校", "name_en": "Nagoya SKY Japanese Language School", "address": "愛知県名古屋市中区新栄1-13-22", "capacity": 262}, "location": {"lat": 35.166941, "lng": 136.9164621}, "features": ["EJU Preparation", "University Advancement Support", "Dormitory Available", "Single Rooms", "Scholarships", "Science Stream Prep", "Conversation Focus", "Business Japanese", "Art & Design Prep", "Short-term Courses"], "tuition": {}, "stats": {"capacity": 262, "international_students": 0}, "link": "/school/school_nagoya-sky-japanese-language-school"}, {"id": "univ_saitama-university", "category": "university", "basic_info": {"name_ja": "埼玉大学", "name_en": "Saitama University", "address": "〒338-8570 埼玉県さいたま市桜区大字下大久保255", "capacity": null}, "location": {"lat": 35.6812, "lng": 139.7671}, "features": ["EJU Required", "English Program", "Dormitory", "Scholarship"], "tuition": {"admission_fee": 282000, "yearly_tuition": 535800}, "stats": {"international_students": 480, "acceptance_rate": "30-40%"}, "link": "/school/univ_saitama-university"}, {"id": "school_urawa-international-education-center", "category": "school", "basic_info": {"name_ja": "浦和国際教育センター", "name_en": "Urawa International Education Center", "address": "埼玉県さいたま市浦和区前地3-16-7", "capacity": 206}, "location": {"lat": 35.8604569, "lng": 139.6670929}, "features": ["Dormitory", "EJU Preparation", "University Preparation", "Conversational Japanese", "Business Japanese", "Science Course", "Scholarships", "Private Rooms", "Art Course", "Design Course", "Short-Term Course"], "tuition": {}, "stats": {"international_students": null, "capacity": 206}, "link": "/school/school_urawa-international-education-center"}, {"id": "school_kokusai-joho-business-college", "category": "school", "basic_info": {"name_ja": "国際情報ビジネス専門学校", "name_en": "International Information Business College", "address": "栃木県宇都宮市大通り1-2-5", "capacity": 80}, "location": {"lat": 36.5611903, "lng": 139.8900542}, "features": ["University Advancement Support", "EJU Preparation", "Dormitory Available", "Short-Term Courses"], "tuition": {}, "stats": {"capacity": 80, "international_students": 0}, "link": "/school/school_kokusai-joho-business-college"}, {"id": "school_hiroshima-kokusai-business-college", "category": "school", "basic_info": {"name_ja": "専門学校広島国際ビジネスカレッジ", "name_en": "Hiroshima Kokusai Business College (Japanese Language Department)", "address": "広島県福山市霞町1-2-3", "capacity": 260}, "location": {"lat": 34.4853978, "lng": 133.3655533}, "features": ["Dormitory available", "EJU preparation support", "Strong university progression focus", "Business Japanese specialized track", "Short-term study options", "Single room accommodation available", "Scholarship programs", "Science stream progression support", "Conversation-focused classes", "Art and Design progression support"], "tuition": {}, "stats": {"international_students": 200, "capacity": 260}, "link": "/school/school_hiroshima-kokusai-business-college"}, {"id": "school_kozan-gakuin-japanese-language-school", "category": "school", "basic_info": {"name_ja": "上山学院日本語学校", "name_en": "Kozan Gakuin Japanese Language School", "address": "愛知県名古屋市中区栄4-16-29", "capacity": 168}, "location": {"lat": 35.165976, "lng": 136.9097542}, "features": ["University Preparation Focus", "EJU Specialized Training", "Dormitory Available (Single Room Option)", "Scholarship System", "Specialized Tracks (Science, Art, Business)", "Conversation/Practical Japanese Emphasis", "Short-Term Study Option", "Located in Nagoya (Aichi Prefecture)"], "tuition": {}, "stats": {"international_students": 123, "capacity": 168}, "link": "/school/school_kozan-gakuin-japanese-language-school"}, {"id": "univ_meiji-university", "category": "university", "basic_info": {"name_ja": "明治大学", "name_en": "Meiji University", "address": "東京都千代田区神田駿河台1-1", "capacity": null}, "location": {"lat": 35.6986273, "lng": 139.7618814}, "features": ["SGU", "EJU Required", "English Program", "Dormitory", "Scholarship"], "tuition": {"admission_fee": 200000, "yearly_tuition": 1200000}, "stats": {"international_students": 1500, "acceptance_rate": "17%"}, "link": "/school/univ_meiji-university"}, {"id": "school_yamate-nihongo-gakko", "category": "school", "basic_info": {"name_ja": "山手日本語学校", "name_en": "Yamate Japanese Language School", "address": "埼玉県川越市脇田本町11-10", "capacity": 340}, "location": {"lat": 35.9059146, "lng": 139.480069}, "features": ["University Preparation", "EJU Preparation", "Dormitory", "Conversation Focused", "Business Japanese", "Art & Design", "Short-Term Courses", "Private Rooms", "Scholarships", "Science Focus"], "tuition": {}, "stats": {"capacity": 340, "international_students": 0}, "link": "/school/school_yamate-nihongo-gakko"}, {"id": "school_ujs-language-institute-roppongi-tokyo", "category": "school", "basic_info": {"name_ja": "UJS Language Institute", "name_en": "UJS Language Institute", "address": "東京都港区六本木3-3-29", "capacity": 320}, "location": {"lat": 35.6631, "lng": 139.7366066}, "features": ["Elite Academic Progression Focus (Shingaku)", "Specialist in EJU and JLPT Preparation", "Located in Prime Central Tokyo (Roppongi)", "Emphasis on High Conversational Fluency", "Intimate Learning Environment (Small Class Capacity)"], "tuition": {}, "stats": {"international_students": 300, "capacity": 320}, "link": "/school/school_ujs-language-institute-roppongi-tokyo"}, {"id": "school_osaka-international-education-academy", "category": "school", "basic_info": {"name_ja": "大阪国際教育学院", "name_en": "Osaka International Education Academy", "address": "大阪府大阪市此花区西九条1-29-2", "capacity": 240}, "location": {"lat": 34.6812538, "lng": 135.4679997}, "features": ["Strong University Progression Focus (EJU)", "On-Campus or Affiliated Dormitory Options", "Scholarship Programs Available", "Offers Short-term Courses", "Relatively Small Class Capacity (240 students)", "Located in Osaka, with excellent transport links"], "tuition": {}, "stats": {"international_students": 200, "capacity": 240}, "link": "/school/school_osaka-international-education-academy"}, {"id": "school_kaszankai-toa-gakuin", "category": "school", "basic_info": {"name_ja": "霞山会 東亜学院", "name_en": "Kazan Society Toa Academy", "address": "東京都港区赤坂2-17-47 赤坂霞山ビル 3階", "capacity": 200}, "location": {"lat": 35.6694872, "lng": 139.7383188}, "features": ["University Preparation", "Dormitory", "EJU Focus", "Science Specialization"], "tuition": {}, "stats": {"capacity": 200, "international_students": 0}, "link": "/school/school_kaszankai-toa-gakuin"}, {"id": "school_shizuoka-international-school", "category": "school", "basic_info": {"name_ja": "静岡インターナショナルスクール", "name_en": "Shizuoka International School", "address": "静岡県静岡市葵区瀬名3-47-3", "capacity": 180}, "location": {"lat": 35.0184789, "lng": 138.4244595}, "features": ["Dormitory", "EJU Preparation", "University Admission Support", "Conversational Japanese"], "tuition": {}, "stats": {"capacity": 180, "international_students": 0}, "link": "/school/school_shizuoka-international-school"}, {"id": "school_human-academy-japanese-language-school-tokyo", "category": "school", "basic_info": {"name_ja": "ヒューマンアカデミー日本語学校東京校", "name_en": "Human Academy Japanese Language School Tokyo Campus", "address": "東京都新宿区高田馬場4-9-9 早稲田予備校13時ホール5F", "capacity": 2240}, "location": {"lat": 35.7133076, "lng": 139.7024913}, "features": ["University Preparation", "EJU Preparation", "Conversation Focus", "Business Japanese", "Short-term Courses"], "tuition": {}, "stats": {"capacity": 2240, "international_students": 0}, "link": "/school/school_human-academy-japanese-language-school-tokyo"}, {"id": "school_aoyama-school-of-japanese", "category": "school", "basic_info": {"name_ja": "青山スクールオブジャパニーズ", "name_en": "Aoyama School of Japanese", "address": "東京都世田谷区経堂5-38-20 CSSビル3階", "capacity": 172}, "location": {"lat": 35.6490694, "lng": 139.6304422}, "features": ["進学", "기숙사", "EJU"], "tuition": {}, "stats": {"capacity": 172, "international_students": 0}, "link": "/school/school_aoyama-school-of-japanese"}, {"id": "school_teikyo-heisei-university-affiliated-japanese-language-school", "category": "school", "basic_info": {"name_ja": "帝京平成大学附属日本語学校", "name_en": "Teikyo Heisei University Affiliated Japanese Language School", "address": "東京都豊島区東池袋4-26-10", "capacity": 100}, "location": {"lat": 35.728589, "lng": 139.7181449}, "features": ["Preparation for Higher Education", "EJU Preparation", "Science Course Focus"], "tuition": {}, "stats": {"capacity": 100, "international_students": 0}, "link": "/school/school_teikyo-heisei-university-affiliated-japanese-language-school"}, {"id": "school_jet-japanese-language-school", "category": "school", "basic_info": {"name_ja": "ジェット日本語学校", "name_en": "JET Japanese Language School", "address": "東京都北区滝野川7-8-9", "capacity": 150}, "location": {"lat": 35.7453444, "lng": 139.7206697}, "features": ["Scholarships", "Dormitory", "Further Education Guidance", "EJU Preparation", "Art Studies", "Design Studies"], "tuition": {}, "stats": {"capacity": 150, "international_students": 0}, "link": "/school/school_jet-japanese-language-school"}, {"id": "school_osafune-japanese-language-academy", "category": "school", "basic_info": {"name_ja": "長船日本語学院", "name_en": "Osafune Japanese Language Academy", "address": "岡山県岡山市北区蕃山町3-10", "capacity": 225}, "location": {"lat": 34.6680558, "lng": 133.926566}, "features": ["University Preparation", "International Exchange", "Dormitory", "Private Rooms", "Scholarships", "EJU Preparation", "Science Focus", "University Admission Support", "Conversation Practice", "Business Japanese", "Art/Design Focus", "Short-Term Courses"], "tuition": {}, "stats": {"capacity": 225, "international_students": 0}, "link": "/school/school_osafune-japanese-language-academy"}, {"id": "school_kokusai-kotoba-gakuin-nihongo-gakko", "category": "school", "basic_info": {"name_ja": "国際ことば学院日本語学校", "name_en": "Kokusai Kotoba Gakuin Japanese Language School", "address": "静岡県静岡市駿河区八幡3丁目2-28", "capacity": 280}, "location": {"lat": 34.9679751, "lng": 138.3958658}, "features": ["Dormitory", "EJU Preparation", "University Preparation", "Conversational Japanese", "Short-Term Courses", "Science-Focused"], "tuition": {}, "stats": {"capacity": 280, "international_students": 0}, "link": "/school/school_kokusai-kotoba-gakuin-nihongo-gakko"}, {"id": "school_toho-international-college", "category": "school", "basic_info": {"name_ja": "東方国際学院", "name_en": "Toho International College", "address": "東京都江戸川区東葛西5-15-2", "capacity": 460}, "location": {"lat": 35.6643687, "lng": 139.8753345}, "features": ["Dormitory", "University Prep", "EJU Prep", "Science Stream", "Short-term Study"], "tuition": {}, "stats": {"capacity": 460, "international_students": 0}, "link": "/school/school_toho-international-college"}, {"id": "school_bunrin-gakuin-japanese-language-department", "category": "school", "basic_info": {"name_ja": "文林学院 日本語科", "name_en": "Bunrin Gakuin Japanese Language Department", "address": "大阪府大阪市阿倍野区王子町1-5-20", "capacity": 209}, "location": {"lat": 34.6354663, "lng": 135.5103128}, "features": ["Dormitory", "EJU Preparation", "University Progression", "Short-Term Courses", "Science Focused"], "tuition": {}, "stats": {"capacity": 209, "international_students": 0}, "link": "/school/school_bunrin-gakuin-japanese-language-department"}, {"id": "school_nagoya-international-japanese-language-school", "category": "school", "basic_info": {"name_ja": "名古屋国際日本語学校", "name_en": "Nagoya International Japanese Language School", "address": "愛知県名古屋市昭和区狭間町3-6", "capacity": 158}, "location": {"lat": 35.1547989, "lng": 136.9236757}, "features": ["Dedicated Pathways for Higher Education Advancement (University, Graduate School, Vocational College)", "Specialized Tracks for Science (Rikei) and Humanities (Bunkei) EJU Preparation", "Comprehensive Support for Art and Design University Admissions (Portfolio & Theory)", "School-Managed Dormitory Options Available (Including Single Rooms)", "Focus on Practical Communication Skills and Business Japanese", "JASSO/Private Scholarship Opportunities for High-Achieving Students", "Flexible Short-Term Study Options Available"], "tuition": {}, "stats": {"international_students": 150, "capacity": 158}, "link": "/school/school_nagoya-international-japanese-language-school"}, {"id": "univ_ryukoku-university", "category": "university", "basic_info": {"name_ja": "龍谷大学", "name_en": "Ryukoku University", "address": "京都府京都市伏見区深草塚本町67", "capacity": null}, "location": {"lat": 35.6812, "lng": 139.7671}, "features": ["English Program", "Dormitory", "Scholarship", "Exchange Program"], "tuition": {"admission_fee": 200000, "yearly_tuition": 1200000}, "stats": {"acceptance_rate": "40%", "international_students": 384}, "link": "/school/univ_ryukoku-university"}, {"id": "school_gyochigakuen-japanese-language-school-takadanobaba", "category": "school", "basic_info": {"name_ja": "行知学園日本語学校高田馬場校", "name_en": "Gyochi Gakuen Japanese Language School Takadanobaba Campus", "address": "東京都新宿区高田馬場2-13-2 JMFビル4階", "capacity": 270}, "location": {"lat": 35.7122838, "lng": 139.7075319}, "features": ["University Preparation", "EJU Focused", "Dormitory Available", "Comprehensive Curriculum", "Experienced Instructors"], "tuition": {}, "stats": {}, "link": "/school/school_gyochigakuen-japanese-language-school-takadanobaba"}, {"id": "school_ecc-nagoya-japanese-language-school", "category": "school", "basic_info": {"name_ja": "ＥＣＣ日本語学院名古屋校", "name_en": "ECC Japanese Language Institute Nagoya School", "address": "愛知県名古屋市中区金山1-16-16", "capacity": 240}, "location": {"lat": 35.1442182, "lng": 136.8995483}, "features": ["Conversation", "University Preparation", "EJU Preparation", "Scholarships", "Dormitory", "Private Room", "Science", "Business Japanese", "Art", "Design", "Short-Term Courses"], "tuition": {}, "stats": {"international_students": null, "capacity": 240}, "link": "/school/school_ecc-nagoya-japanese-language-school"}, {"id": "univ_the-university-of-tokyo", "category": "university", "basic_info": {"name_ja": "東京大学", "name_en": "The University of Tokyo", "address": "東京都文京区本郷７丁目３−１", "capacity": null}, "location": {"lat": 35.7115533, "lng": 139.7616856}, "features": ["SGU", "EJU Required", "English Program", "Dormitory", "Scholarship"], "tuition": {"admission_fee": 282000, "yearly_tuition": 535800}, "stats": {"acceptance_rate": "20%", "international_students": 3000}, "link": "/school/univ_the-university-of-tokyo"}, {"id": "univ_chuo-university", "category": "university", "basic_info": {"name_ja": "中央大学", "name_en": "Chuo University", "address": "〒192-0393 東京都八王子市東中野742-1", "capacity": null}, "location": {"lat": 35.6421784, "lng": 139.4045451}, "features": ["EJU Required", "English Program", "Dormitory", "Scholarship", "Career Support"], "tuition": {"admission_fee": 200000, "yearly_tuition": 1300000}, "stats": {"international_students": 1200, "acceptance_rate": "25%"}, "link": "/school/univ_chuo-university"}, {"id": "school_subaru-gakuin-motosu-school", "category": "school", "basic_info": {"name_ja": "スバル学院本巣校", "name_en": "Subaru Gakuin Motosu School", "address": "岐阜県本巣市上真桑1963番地", "capacity": 160}, "location": {"lat": 35.4347003, "lng": 136.6762112}, "features": ["Intensive University and Graduate School Preparation", "On-site Dormitory Facilities", "Guaranteed Single Room Dormitory Options", "Targeted EJU Preparation (Liberal Arts and STEM)", "Specialized Tracks (Art, Design, Business Japanese)", "Focus on Conversation and Practical Japanese", "Scholarship Opportunities", "Located in Gifu Prefecture (Lower cost of living)"], "tuition": {}, "stats": {"international_students": null, "capacity": 160}, "link": "/school/school_subaru-gakuin-motosu-school"}, {"id": "univ_kokushikan-university", "category": "university", "basic_info": {"name_ja": "国士舘大学", "name_en": "Kokushikan University", "address": "〒154-8515 東京都世田谷区世田谷4-28-1", "capacity": null}, "location": {"lat": 35.6812, "lng": 139.7671}, "features": ["EJU Required", "Dormitory", "Scholarship", "Limited English-taught courses", "Japanese Language Support"], "tuition": {"admission_fee": 200000, "yearly_tuition": 1000000}, "stats": {"international_students": 431, "acceptance_rate": "Highly competitive, approximately 35-45% depending on faculty and entrance exam."}, "link": "/school/univ_kokushikan-university"}, {"id": "univ_aichi-university-guide", "category": "university", "basic_info": {"name_ja": "愛知大学", "name_en": "Aichi University", "address": "愛知県名古屋市中村区平池町4-60-6", "capacity": null}, "location": {"lat": 35.6812, "lng": 139.7671}, "features": ["EJU Required", "Strong Humanities/Social Sciences", "Nagoya Campus (Modern)", "Scholarship Focused", "Unique Historical Link to Shanghai"], "tuition": {"admission_fee": 250000, "yearly_tuition": 1200000}, "stats": {"international_students": 550, "acceptance_rate": "Not Publicly Disclosed (Estimated 25-30%)"}, "link": "/school/univ_aichi-university-guide"}, {"id": "school_nara-gaigo-gakuin", "category": "school", "basic_info": {"name_ja": "奈良外語学院", "name_en": "Nara Foreign Language Academy", "address": "奈良県奈良市法蓮町7-2", "capacity": 120}, "location": {"lat": 34.6890115, "lng": 135.8258508}, "features": ["Dormitory", "Private Room", "Scholarship", "EJU Preparation", "Science Course Focus", "University Preparation", "Conversational Japanese", "Business Japanese", "Art Studies", "Design Studies", "Short-Term Course"], "tuition": {}, "stats": {"capacity": 120, "international_students": 0}, "link": "/school/school_nara-gaigo-gakuin"}, {"id": "univ_hitotsubashi-university", "category": "university", "basic_info": {"name_ja": "一橋大学", "name_en": "Hitotsubashi University", "address": "〒186-8601 東京都国立市中2-1", "capacity": null}, "location": {"lat": 35.6812, "lng": 139.7671}, "features": ["SGU", "EJU Required", "English Program", "Dormitory", "Scholarship"], "tuition": {"admission_fee": 282000, "yearly_tuition": 535800}, "stats": {"acceptance_rate": "15%", "international_students": 300}, "link": "/school/univ_hitotsubashi-university"}, {"id": "school_fujisan-japanese-language-school-shizuoka", "category": "school", "basic_info": {"name_ja": "富士山日本語学校", "name_en": "Fujisan Japanese Language School", "address": "静岡県富士市横割1-6-16", "capacity": 160}, "location": {"lat": 35.1489411, "lng": 138.6553956}, "features": ["On-campus/Affiliated Dormitory Accommodation", "Specialized EJU Preparation", "Dedicated Higher Education Advancement Track", "Strong Focus on Conversational Proficiency", "Exclusive Science (Rika/Ika) Stream for STEM Applicants", "Flexible Short-Term Study Options"], "tuition": {}, "stats": {"international_students": 160, "capacity": 160}, "link": "/school/school_fujisan-japanese-language-school-shizuoka"}, {"id": "school_kobe-ymca-college", "category": "school", "basic_info": {"name_ja": "神戸YMCA学院専門学校", "name_en": "Kobe YMCA College", "address": "兵庫県神戸市中央区加納町2-7-11", "capacity": 240}, "location": {"lat": 34.7009189, "lng": 135.1936115}, "features": ["University Preparation", "EJU Preparation", "Science Courses", "University Admission", "Dormitory", "Private Rooms", "Scholarships", "Conversation Focused", "Business Japanese", "Art", "Design", "Short-Term Courses"], "tuition": {}, "stats": {"capacity": 240, "international_students": 0}, "link": "/school/school_kobe-ymca-college"}, {"id": "school_osaka-high-technology-college", "category": "school", "basic_info": {"name_ja": "大阪ハイテクノロジー専門学校", "name_en": "Osaka High Technology College", "address": "大阪府大阪市淀川区宮原1-2-43", "capacity": 80}, "location": {"lat": 34.73491509999999, "lng": 135.5008132}, "features": ["Advancement to Higher Education", "EJU Preparation", "Conversational Japanese", "Dormitory", "Single Room Dormitory", "Scholarships", "Science Courses", "Business Courses", "Art Courses", "Design Courses", "Short-Term Courses"], "tuition": {}, "stats": {"international_students": 123, "capacity": 80}, "link": "/school/school_osaka-high-technology-college"}, {"id": "school_nicchu-language-academy", "category": "school", "basic_info": {"name_ja": "日中語学専門学院", "name_en": "Nichichu Language Academy", "address": "大阪府大阪市天王寺区寺田町2-5-19", "capacity": 176}, "location": {"lat": 34.6491877, "lng": 135.5242562}, "features": ["Dormitory", "EJU Preparation", "University Admission Support", "Conversation Focused", "Science Course Preparation", "Scholarships"], "tuition": {}, "stats": {"capacity": 176, "international_students": 0}, "link": "/school/school_nicchu-language-academy"}, {"id": "school_tokyo-nakano-japanese-language-institute", "category": "school", "basic_info": {"name_ja": "東京中野日本語学院", "name_en": "Tokyo Nakano Japanese Language Institute", "address": "東京都中野区弥生町1-27-3", "capacity": 150}, "location": {"lat": 35.6917092, "lng": 139.6786235}, "features": ["Dedicated University and Vocational School Placement Support", "Intensive EJU (Examination for Japanese University Admission) Training", "Specialized Science Stream (Rikagaku) Curriculum", "Strong Emphasis on Practical Conversational Skills"], "tuition": {}, "stats": {"international_students": 140, "capacity": 150}, "link": "/school/school_tokyo-nakano-japanese-language-institute"}]}